X,Y,OBJECTID,BUSLIC_LOCATION_ID,DEA_FACILITY_OWNER,DEA_FACILITY_NAME,DEA_BUSINESS_CONTACT,DEA_BUSINESS_PHONE,DEA_FACILITY_ADDRESS,DEA_STALLS,FAC_NAME,HRS_MONFRI,HRS_SAT,HRS_SUN,FAC_TYPE,RTE_1HR,RTE_2HR,RTE_3HR,RTE_ALLDAY,DISABLED,OP_NAME,OP_PHONE,OP_PHONE2,OP_WEB,PAYMENT_TYPE,OTHER,WEBNAME,REGIONID,SIGNID
-122.318463206969,47.6608505694955,12873,705410,,DIAMOND PARKING  WX10,JONATHAN DIAMOND,2062843100           ,"907 NE 45TH ST, SEATTLE, WA 98105",17,DIAMOND PARKING  WX10,,,,,,,,,,,,,,,N,,,
-122.334638084338,47.6058205558944,12874,580480,,EXPEDITOR GARAGE,R GATES,2066743400           ,"1015 3RD AVE # FL 12, SEATTLE, WA 98104",154,EXPEDITOR GARAGE,,,,,,,,,,,,,,,N,,,
-122.358377144303,47.6207639664793,12875,625108,,DIAMOND PARKING  A128,JONATHAN DIAMOND,2062843100           ,"233 1ST AVE W, SEATTLE, WA 98109",22,DIAMOND PARKING  A128,,,,,,,,,,,,,,,N,,,
-122.339572235175,47.6106656489231,12876,740982,,UNITED PARKING SERVICES 4553,JONATHAN DIAMOND,2062843100           ,"1600 2ND AVE, SEATTLE, WA 98101-3273",50,UNITED PARKING SERVICES 4553,,,,,,,,,,,,,,,N,,,
-122.321252032145,47.6106514185857,12877,711581,,ALCOA LOT   1401,MARK NORWICZ,4102676111           ,"1401 MADISON ST, SEATTLE, WA 98104-1316",53,ALCOA LOT   1401,,,,,,,,,,,,,,,N,,,
-122.346508791594,47.6488781129254,12878,4570,,U PARK 66,KEN JR PHILLIPS,2066245353           ,"910 N NORTHLAKE WAY, SEATTLE, WA 98103",85,U PARK 66,,,,,,,,,,,,,,,N,,,
-122.357121064266,47.6518199607306,12879,4591,,U PARK 87,KEN JR PHILLIPS,2062849797           ,"100 N CANAL ST, SEATTLE, WA 98103",90,U PARK 87,,,,,,,,,,,,,,,N,,,
-122.350241139173,47.6494220589185,12880,4578,,U PARK 74,KEN JR PHILLIPS,2062849797           ,"601 N 34TH ST, SEATTLE, WA 98103",90,U PARK 74,,,,,,,,,,,,,,,N,,,
-122.350241139173,47.6494220589185,13121,4557,,U PARK 52,KEN JR PHILLIPS,2062847979           ,"601 N 34TH ST, SEATTLE, WA 98103",56,U PARK 52,,,,,,,,,,,,,,,N,,,
-122.354707323045,47.6510678003451,13122,4576,,U PARK 72,KEN JR PHILLIPS,2062849797           ,"173 N 35TH ST, SEATTLE, WA 98133",36,U PARK 72,,,,,,,,,,,,,,,N,,,
-122.338841058527,47.618871676223,13123,637801,,DISCOVERY CENTER LOT 81902,BILL BEATTIE,2062899296           ,"101 WESTLAKE AVE N, SEATTLE, WA 98109-5215",26,DISCOVERY CENTER LOT 81902,,,,,,,,,,,,,,,N,,,
-122.320334939206,47.5995063730338,13124,604643,,DIAMOND PARKING  A633,JONATHAN DIAMOND,2062843100           ,"900 S JACKSON ST, SEATTLE, WA 98104",180,DIAMOND PARKING  A633,,,,,,,,,,,,,,,N,,,
-122.334519234769,47.6100281131034,13125,165225,,ACE PARKING MANAGEMENT INC,KEITH JONES,6192336624           ,"500 UNION ST #400, SEATTLE, WA 98101",589,ACE PARKING MANAGEMENT INC,,,,,,,,,,,,,,,N,,,
-122.334519234769,47.6100281131034,13126,165225,,ACE PARKING MANAGEMENT INC,KEITH JONES,2069031218           ,"500 UNION ST #400, SEATTLE, WA 98101",589,ACE PARKING MANAGEMENT INC,,,,,,,,,,,,,,,N,,,
-122.334519234769,47.6100281131034,13127,165225,,ACE PARKING MANAGEMENT INC,KEITH JONES,2067275827           ,"500 UNION ST #400, SEATTLE, WA 98101",589,ACE PARKING MANAGEMENT INC,,,,,,,,,,,,,,,N,,,
-122.338167749363,47.6063547628009,13128,600948,,UNITED PARKING  4518,JONATHAN DIAMOND,2062843100           ,"1221 1ST AVE, SEATTLE, WA 98101",235,UNITED PARKING  4518,,,,,,,,,,,,,,,N,,,
-122.333593172842,47.5856087056149,13129,595311,,DIAMOND  A873,JONATHAN DIAMOND,2062843100           ,"1910 1ST AVE S, SEATTLE, WA 98134",5,DIAMOND  A873,,,,,,,,,,,,,,,N,,,
-122.333593172842,47.5856087056149,13130,584045,,DIAMOND PARKING  A238,JONATHAN DIAMOND,2062846303           ,"1900 1ST AVE S, SEATTLE, WA 98134",65,DIAMOND PARKING  A238,,,,,,,,,,,,,,,N,,,
-122.38434001425,47.6692585872695,13131,637235,,DIAMOND PARKING  WU88,JONATHAN DIAMOND,2062843100           ,"5512 22ND AVE NW, SEATTLE, WA 98107",25,DIAMOND PARKING  WU88,,,,,,,,,,,,,,,N,,,
-122.333714719102,47.5768007447053,13132,671117,,DIAMOND PARKING  A414,JONATHAN DIAMOND,2062843100           ,"2930 1ST AVE S, SEATTLE, WA 98134",23,DIAMOND PARKING  A414,,,,,,,,,,,,,,,N,,,
-122.297008549234,47.5773456662088,13133,689415,,DIAMOND PARKING  A467,JONATHAN DIAMOND,2062843100           ,"2910 RAINIER AVE S, SEATTLE, WA 98144",25,DIAMOND PARKING  A467,,,,,,,,,,,,,,,N,,,
-122.303644051505,47.6180918813025,13134,741139,,DIAMOND PARKING SERVICES A701,JONATHAN DIAMOND,2062843100           ,"2211 E MADISON ST, SEATTLE, WA 98112-5336",11,DIAMOND PARKING SERVICES A701,,,,,,,,,,,,,,,N,,,
-122.328333347188,47.5889542375704,13135,705180,,IPM  15,JOAN SUNDBERG,2062540811           ,"1550 4TH AVE S, SEATTLE, WA 98134",68,IPM  15,,,,,,,,,,,,,,,N,,,
-122.337256823426,47.6157832232617,13136,668193,,STANDARD PARKING 82190 WEST 8TH,BILL BEATTIE,2063818552           ,"2001 8TH AVE, SEATTLE, WA 98121-2615",444,STANDARD PARKING 82190 WEST 8TH,,,,,,,,,,,,,,,N,,,
-122.334935728297,47.6112527950368,13137,596082,,520 PIKE TOWER GARAGE 82199,BILL BEATTIE,2063818552           ,"520 PIKE ST, SEATTLE, WA 98101-1385",263,520 PIKE TOWER GARAGE 82199,,,,,,,,,,,,,,,N,,,
-122.317438530451,47.6155230269142,13138,670887,,DIAMOND PARKING  A429,JONATHAN DIAMOND,2062843100           ,"1110 E PINE ST, SEATTLE, WA 98122",24,DIAMOND PARKING  A429,,,,,,,,,,,,,,,N,,,
-122.329479828572,47.6224626537504,13139,635166,,DIAMOND PARKING  A275,JONATHAN DIAMOND,2062846303           ,"411 EASTLAKE AVE E, SEATTLE, WA 98109",26,DIAMOND PARKING  A275,,,,,,,,,,,,,,,N,,,
-122.314817282584,47.6154318636416,13140,645761,,DIAMOND PARKING  A875,JONATHAN DIAMOND,2062846303           ,"1320 E PINE ST, SEATTLE, WA 98112",52,DIAMOND PARKING  A875,,,,,,,,,,,,,,,N,,,
-122.318723909913,47.6620731849364,13141,729360,,DIAMOND PARKING SVCS WX41,JONATHAN DIAMOND,2062843100           ,"4525 9TH AVE NE, SEATTLE, WA 98105",22,DIAMOND PARKING SVCS WX41,,,,,,,,,,,,,,,N,,,
-122.371018257715,47.6291373301364,13142,639537,,DIAMOND PARKING  A312,JONATHAN DIAMOND,2062843100           ,"1110 ELLIOTT AVE W, SEATTLE, WA 98119",13,DIAMOND PARKING  A312,,,,,,,,,,,,,,,N,,,
-122.371018257715,47.6291373301364,13143,740687,,DIAMOND PARKING A312,JONATHAN DIAMOND,2062843100           ,"1110 ELLIOTT AVE W, SEATTLE, WA 98119",33,DIAMOND PARKING A312,,,,,,,,,,,,,,,N,,,
-122.34074231661,47.6074551915461,13144,652556,,REPUBLIC 30 179,GARY BECK,2067871246           ,"1403 WESTERN AVE, SEATTLE, WA 98121",50,REPUBLIC 30 179,,,,,,,,,,,,,,,N,,,
-122.328807795767,47.6369311549313,13145,720871,,DIAMOND PARKING  A659,JONATHAN DIAMOND,2062843100           ,"2000 FAIRVIEW AVE E, SEATTLE, WA 98102",25,DIAMOND PARKING  A659,,,,,,,,,,,,,,,N,,,
-122.333385856917,47.6108699044696,13146,540891,,ACE PARKING  3273 SHERATON PRKG GARAGE,KEITH JONES,6192336624           ,"1400 6TH AVE AV, SEATTLE, WA 98101",300,ACE PARKING  3273 SHERATON PRKG GARAGE,,,,,,,,,,,,,,,N,,,
-122.33072045987,47.6045350670155,13147,726758,,ABM PARKING,,2062670725           ,"701 5TH AVE, SEATTLE, WA 98104",703,ABM PARKING,,,,,,,,,,,,,,,N,,,
-122.332824538651,47.5844442756755,13148,717150,,DIAMOND PARKING  A641,JONATHAN DIAMOND,2062843100           ,"1900 OCCIDENTAL AVE S, SEATTLE, WA 98134",95,DIAMOND PARKING  A641,,,,,,,,,,,,,,,N,,,
-122.350623201815,47.6654522522296,13149,556115,,WOODLAND PARK ZOO LOT  1,WOODLAND PARK ZOO SOCIETY,2062332503           ,"600 N 50TH ST, SEATTLE, WA 98103",276,WOODLAND PARK ZOO LOT  1,,,,,,,,,,,,,,,N,,,
-122.350459596885,47.649851144879,13150,637241,,DIAMOND PARKING  WU78,JONATHAN DIAMOND,2062843100           ,"620 N 34TH ST, SEATTLE, WA 98103",95,DIAMOND PARKING  WU78,,,,,,,,,,,,,,,N,,,
-122.328492443448,47.5978272126078,13151,517528,,UNION STATION PARKING GARAGE NORTH,JOAN SUNDBERG,2062540811           ,"550 4TH AVE S, SEATTLE, WA 98104",477,UNION STATION PARKING GARAGE NORTH,,,,,,,,,,,,,,,N,,,
-122.345692298966,47.6105179343534,13152,639408,, 30 129 LENORA LOT,GARY BECK,2067834144           ,"50 LENORA ST, SEATTLE, WA 98101",53, 30 129 LENORA LOT,,,,,,,,,,,,,,,N,,,
-122.354017366186,47.6653963190842,13153,556116,,WOODLAND PARK ZOO LOT  2,WOODLAND PARK ZOO SOCIETY,2062332503           ,"5000 PHINNEY AVE N, SEATTLE, WA 98103",140,WOODLAND PARK ZOO LOT  2,,,,,,,,,,,,,,,N,,,
-122.325704553289,47.6007126785274,13154,690382,,UNITED PARKING  4591,JONATHAN DIAMOND,2062843100           ,"601 S WASHINGTON ST, SEATTLE, WA 98104",40,UNITED PARKING  4591,,,,,,,,,,,,,,,N,,,
-122.32728583933,47.5994838985278,13155,543204,,IPM  23,JOAN SUNDBERG,2069327809           ,"500 S JACKSON ST, SEATTLE, WA 98104",100,IPM  23,,,,,,,,,,,,,,,N,,,
-122.333905310221,47.6080375848486,13156,639444,,THE FAIRMONT OLYMPIC HOTEL VALET PARKING MGT,KEITH JONES,2066525515           ,"411 UNIVERSITY ST, SEATTLE, WA 98101",0,THE FAIRMONT OLYMPIC HOTEL VALET PARKING MGT,,,,,,,,,,,,,,,N,,,
-122.318310196664,47.6582115509872,13157,723322,,IMPARK   4225 ROOSEVELT WAY NE,EDWARD DANYLUK,2063811789           ,"4225 ROOSEVELT WAY NE, SEATTLE, WA 98105",205,IMPARK   4225 ROOSEVELT WAY NE,,,,,,,,,,,,,,,N,,,
-122.318300798915,47.6588416043905,13158,723324,,IMPARK 143,EDWARD DANYLUK,2063811789           ,"4245 ROOSEVELT WAY NE, SEATTLE, WA 98105",205,IMPARK 143,,,,,,,,,,,,,,,N,,,
-122.316343578288,47.6033395197353,13159,583158,,DIAMOND PARKING  A492,JONATHAN DIAMOND,2069929475           ,"1203 E SPRUCE ST, SEATTLE, WA 98102",30,DIAMOND PARKING  A492,,,,,,,,,,,,,,,N,,,
-122.348732206749,47.6131732395974,13160,614641,,REPUBLIC PARKING 245 MARS HILL CHURCH LOT,GARY BECK,2067834144           ,"2333 WESTERN AVE, SEATTLE, WA 98121",22,REPUBLIC PARKING 245 MARS HILL CHURCH LOT,,,,,,,,,,,,,,,N,,,
-122.348358474326,47.6124540227848,13161,733310,,IMPARK 138,EDWARD DANYLUK,2063811789           ,"2300 ELLIOTT AVE, SEATTLE, WA 98121",127,IMPARK 138,,,,,,,,,,,,,,,N,,,
-122.383488656143,47.6674080298688,13162,717275,,REPUBLIC PARKING  109,GARY BECK,2067834144           ,"5433 LEARY AVE NW, SEATTLE, WA 98107",28,REPUBLIC PARKING  109,,,,,,,,,,,,,,,N,,,
-122.318426320254,47.6127114578018,13163,679931,,DIAMOND PARKING  A454,JONATHAN DIAMOND,2062843100           ,"1161 11TH AVE, SEATTLE, WA 98122",9,DIAMOND PARKING  A454,,,,,,,,,,,,,,,N,,,
-122.316414737771,47.6134298333499,13164,586728,,DIAMOND PARKING  A947,JONATHAN DIAMOND,2062846303           ,"1412 12TH AVE E, SEATTLE, WA 98102",36,DIAMOND PARKING  A947,,,,,,,,,,,,,,,N,,,
-122.341119859497,47.6164094690085,13165,530472,,IMPARK  4,EDWARD DANYLUK,2063811789           ,"2200 6TH AVE, SEATTLE, WA 98101",213,IMPARK  4,,,,,,,,,,,,,,,N,,,
-122.334577175138,47.5878805462524,13166,662686,,REPUBLIC PARKING 30 145,GARY BECK,2067834144           ,"1701 1ST AVE S, SEATTLE, WA 98134",60,REPUBLIC PARKING 30 145,,,,,,,,,,,,,,,N,,,
-122.31218253388,47.6682420539723,13167,728488,,DIAMOND PARKING SERVICES WX27,JONATHAN DIAMOND,2062843100           ,"5263 15TH AVE NE, SEATTLE, WA 98105",5,DIAMOND PARKING SERVICES WX27,,,,,,,,,,,,,,,N,,,
-122.313893653092,47.6642915805576,13168,637245,,DIAMOND PARKING  WU57,JONATHAN DIAMOND,2062843100           ,"4732 BROOKLYN AVE NE, SEATTLE, WA 98105",10,DIAMOND PARKING  WU57,,,,,,,,,,,,,,,N,,,
-122.313447064168,47.6638248618933,13169,593922,,DIAMOND  WU58,JONATHAN DIAMOND,2062843100           ,"4725 UNIVERSITY WAY NE, SEATTLE, WA 98105",63,DIAMOND  WU58,,,,,,,,,,,,,,,N,,,
-122.313397307509,47.6634494695784,13170,690568,,DIAMOND PARKING  WU77   B OF A,JONATHAN DIAMOND,2062843100           ,"4701 UNIVERSITY WAY NE, SEATTLE, WA 98105",36,DIAMOND PARKING  WU77   B OF A,,,,,,,,,,,,,,,N,,,
-122.351409041969,47.6170643939772,13171,729620,,LAZ PARKING BAY VISTA,ALAN LAZOWSKI,8605227641           ,"2821 2ND AVE, SEATTLE, WA 98121-1282",173,LAZ PARKING BAY VISTA,,,,,,,,,,,,,,,N,,,
-122.319490503414,47.6784166626625,13172,673071,,DIAMOND PARKING  WU11,JONATHAN DIAMOND,2062843100           ,"6801 ROOSEVELT WAY NE, SEATTLE, WA 98115",155,DIAMOND PARKING  WU11,,,,,,,,,,,,,,,N,,,
-122.333683700909,47.5933026245974,13173,125205,,DOME PARKING,MARVIN APPLE,4253491700           ,"1030 1ST AVE S, SEATTLE, WA 98134",120,DOME PARKING,,,,,,,,,,,,,,,N,,,
-122.382598284946,47.6662893081908,13174,701367,,BALLARD PARKING,JAMES RIGGLE,2067895010           ,"5216 BALLARD AVE NW, SEATTLE, WA 98107",66,BALLARD PARKING,,,,,,,,,,,,,,,N,,,
-122.321352937575,47.6167676342092,13175,635154,,DIAMOND PARKING  A025,JONATHAN DIAMOND,2062846303           ,"1701 BROADWAY, SEATTLE, WA 98122",36,DIAMOND PARKING  A025,,,,,,,,,,,,,,,N,,,
-122.318050428376,47.6591700093788,13176,4548,,U PARK 43,KEN JR PHILLIPS,2062849797           ,"4259 ROOSEVELT WAY NE, SEATTLE, WA 98015",15,U PARK 43,,,,,,,,,,,,,,,N,,,
-122.333683992845,47.5808497310787,13177,667144,,DIAMOND PARKING  420,JONATHAN DIAMOND,2062843100           ,"2430 1ST AVE S, SEATTLE, WA 98134",36,DIAMOND PARKING  420,,,,,,,,,,,,,,,N,,,
-122.335439011047,47.6076874921869,13178,672586,,IMPARK 114,EDWARD DANYLUK,2063811789           ,"1218 3RD AVE, SEATTLE, WA 98101",53,IMPARK 114,,,,,,,,,,,,,,,N,,,
-122.348542560574,47.6142151195445,13179,581999,,DIAMOND PARKING  A921,JONATHAN DIAMOND,2062843100           ,"2407 1ST AVE, SEATTLE, WA 98121",63,DIAMOND PARKING  A921,,,,,,,,,,,,,,,N,,,
-122.313338663566,47.6144520739283,13180,728486,,DIAMOND PARKING SERVICES A669 A670,JONATHAN DIAMOND,2062843100           ,"1420 E MADISON ST, SEATTLE, WA 98122",40,DIAMOND PARKING SERVICES A669 A670,,,,,,,,,,,,,,,N,,,
-122.332834003283,47.6138990876241,13181,692663,,WORLDMARK AT THE CAMLIN,ANTHONY GIARRATANA,6155642858           ,"1619 9TH AVE, SEATTLE, WA 98101-1824",40,WORLDMARK AT THE CAMLIN,,,,,,,,,,,,,,,N,,,
-122.313824812768,47.6149701140275,13182,583622,,DIAMOND PARKING  A936,JONATHAN DIAMOND,2069929436           ,"1522 14TH AVE, SEATTLE, WA 98122",57,DIAMOND PARKING  A936,,,,,,,,,,,,,,,N,,,
-122.357085809194,47.6242217347659,13183,713343,,DIAMOND PARKING A642,JONATHAN DIAMOND,2062843100           ,"11 W MERCER ST, SEATTLE, WA 98119",15,DIAMOND PARKING A642,,,,,,,,,,,,,,,N,,,
-122.356375736524,47.6234327952902,13184,661551,,DIAMOND PARKING  A396,JONATHAN DIAMOND,2062843100           ,"500 QUEEN ANNE AVE N, SEATTLE, WA 98109",13,DIAMOND PARKING  A396,,,,,,,,,,,,,,,N,,,
-122.337552214868,47.6240191103157,13185,642662,,AMAZON GARAGE 82170,BILL BEATTIE,2066247040           ,"535 TERRY AVE N, SEATTLE, WA 98109-4361",152,AMAZON GARAGE 82170,,,,,,,,,,,,,,,N,,,
-122.327150046464,47.6150739450482,13186,734647,,REPUBLIC PARKING 30 125,GARY BECK,2067834144           ,"1535 BELLEVUE WAY, SEATTLE, WA 98122",35,REPUBLIC PARKING 30 125,,,,,,,,,,,,,,,N,,,
-122.322587634038,47.6107413554414,13187,596046,,FIRST HILL PLAZA GARAGE 41134,BILL BEATTIE,2063818552           ,"1300 MADISON ST, SEATTLE, WA 98104-1315",72,FIRST HILL PLAZA GARAGE 41134,,,,,,,,,,,,,,,N,,,
-122.323524395987,47.6097181063796,13188,4610,,U PARK 106,KEN JR PHILLIPS,2066245353           ,"1201 MADISON ST, SEATTLE, WA 98104",35,U PARK 106,,,,,,,,,,,,,,,N,,,
-122.324252754961,47.6092058782928,13189,670307,, MARION & MINOR GARAGE,ANTHONY GIARRATANA,6152382250           ,"1101 MADISON ST, SEATTLE, WA 98104-1306",1025, MARION & MINOR GARAGE,,,,,,,,,,,,,,,N,,,
-122.329880718782,47.6050073740255,13190,614872,,IMPARK  65,EDWARD DANYLUK,2063811789           ,"700 5TH AVE, SEATTLE, WA 98104",589,IMPARK  65,,,,,,,,,,,,,,,N,,,
-122.321811417703,47.6205319769851,13191,593917,,DIAMOND  PARKING  A496,JONATHAN DIAMOND,2062843100           ,"218 HARVARD AVE E, SEATTLE, WA 98102",22,DIAMOND  PARKING  A496,,,,,,,,,,,,,,,N,,,
-122.33418108564,47.6136101265421,13192,729935,,81762 HYATT OLIVE 8,BILL BEATTIE,2063818552           ,"1635 8TH AVE, SEATTLE, WA 98101",100,81762 HYATT OLIVE 8,,,,,,,,,,,,,,,N,,,
-122.337171640146,47.6119241513741,13193,656512,,REPUBLIC PARKING 590 WESTLAKE CENTER,GARY BECK,2067834144           ,"1601 5TH AVE, SEATTLE, WA 98101",256,REPUBLIC PARKING 590 WESTLAKE CENTER,,,,,,,,,,,,,,,N,,,
-122.330398530138,47.6298465806225,13194,638926,,DIAMOND PARKING  A048,JONATHAN DIAMOND,2062843100           ,"1111 FAIRVIEW AVE N, SEATTLE, WA 98109",66,DIAMOND PARKING  A048,,,,,,,,,,,,,,,N,,,
-122.385129342562,47.6697434611367,13195,716441,,BALLARD COMMONS,ANTHONY GIARRATANA,6155642858           ,"5601 22ND AVE NW, SEATTLE, WA 98107-3119",0,BALLARD COMMONS,,,,,,,,,,,,,,,N,,,
-122.319204249122,47.6609682792252,13196,665262,,DIAMOND PARKING  WU64,JONATHAN DIAMOND,2062843100           ,"809 NE 45TH ST, SEATTLE, WA 98105",100,DIAMOND PARKING  WU64,,,,,,,,,,,,,,,N,,,
-122.379934831689,47.6688954782018,13197,718789,,DIAMOND PARKING  A654,JONATHAN DIAMOND,2062843100           ,"1722 NW MARKET ST, SEATTLE, WA 98107",18,DIAMOND PARKING  A654,,,,,,,,,,,,,,,N,,,
-122.352627349223,47.6142929586945,13198,733392,,IMPARK 161,EDWARD DANYLUK,2063811789           ,"2601 ELLIOTT AVE, SEATTLE, WA 98121",592,IMPARK 161,,,,,,,,,,,,,,,N,,,
-122.340978437429,47.6128410667758,13199,4529,,U PARK 24,KEN JR PHILLIPS,2062849797           ,"2010 3RD AVE, SEATTLE, WA 98121",44,U PARK 24,,,,,,,,,,,,,,,N,,,
-122.341648398394,47.6120321620208,13200,715228,,LAZ PARKING,ALAN LAZOWSKI,8605227641           ,"2000 2ND AVE, SEATTLE, WA 98121-2234",0,LAZ PARKING,,,,,,,,,,,,,,,N,,,
-122.357561523376,47.6238983183353,13201,573814,,DIAMOND PARKING  A844,JONATHAN DIAMOND,2062846303           ,"516 1ST AVE W, SEATTLE, WA 98119",13,DIAMOND PARKING  A844,,,,,,,,,,,,,,,N,,,
-122.313927105938,47.661600650764,13202,625132,,DIAMOND PARKING  WU50,JONATHAN DIAMOND,2062843100           ,"1300 NE 45TH ST, SEATTLE, WA 98105",51,DIAMOND PARKING  WU50,,,,,,,,,,,,,,,N,,,
-122.313861446821,47.6624126631384,13203,52864,,U DISTRICT PARKING 10,,2065277006           ,"4526 BROOKLYN AVE NE, SEATTLE, WA 98105",72,U DISTRICT PARKING 10,,,,,,,,,,,,,,,N,,,
-122.336738836813,47.6061372824857,13204,723329,,IMPARK  155,EDWARD DANYLUK,2063811789           ,"1191 2ND AVE, SEATTLE, WA 98101",310,IMPARK  155,,,,,,,,,,,,,,,N,,,
-122.336643815811,47.6058129240851,13205,723326,,IMPARK  156,EDWARD DANYLUK,2063811789           ,"1101 2ND AVE, SEATTLE, WA 98101",121,IMPARK  156,,,,,,,,,,,,,,,N,,,
-122.313149163196,47.615060734161,13206,677040,,UNITED PARKING LOT 4596,JONATHAN DIAMOND,2062843100           ,"1527 15TH AVE, SEATTLE, WA 98112",12,UNITED PARKING LOT 4596,,,,,,,,,,,,,,,N,,,
-122.336195359929,47.613396528735,13207,605780,,IMPARK  58,EDWARD DANYLUK,2063811789           ,"600 OLIVE WAY, SEATTLE, WA 98101",233,IMPARK  58,,,,,,,,,,,,,,,N,,,
-122.328724082966,47.6043902484739,13208,614874,,IMPARK  66,EDWARD DANYLUK,2063811789           ,"609 6TH AVE, SEATTLE, WA 98104",490,IMPARK  66,,,,,,,,,,,,,,,N,,,
-122.328724082966,47.6043902484739,13209,531661,,SEAPARK AUTO PARKING GARAGE REVENUE,,2063864038           ,"609 6TH AVE, SEATTLE, WA 98104",0,SEAPARK AUTO PARKING GARAGE REVENUE,,,,,,,,,,,,,,,N,,,
-122.328724082966,47.6043902484739,13210,531661,,SEAPARK AUTO PARKING GARAGE REVENUE,,6192336624           ,"609 6TH AVE, SEATTLE, WA 98104",0,SEAPARK AUTO PARKING GARAGE REVENUE,,,,,,,,,,,,,,,N,,,
-122.343275276719,47.6146286130552,13211,645726,,DIAMOND PARKING  A009,JONATHAN DIAMOND,2062846303           ,"2201 4TH AVE, SEATTLE, WA 98121",146,DIAMOND PARKING  A009,,,,,,,,,,,,,,,N,,,
-122.33531301965,47.6128922511664,13212,729619,,LAZ PARKING PACIFIC PLACE,ALAN LAZOWSKI,8605227641           ,"600 PINE ST, SEATTLE, WA 98101-3700",1210,LAZ PARKING PACIFIC PLACE,,,,,,,,,,,,,,,N,,,
-122.33531301965,47.6128922511664,13213,716742,,MPH PP GARAGE LLC,MPH PP GARAGE LP,2027413857           ,"600 PINE ST # 228, SEATTLE, WA 98101-3705",0,MPH PP GARAGE LLC,,,,,,,,,,,,,,,N,,,
-122.320610885573,47.6249448987047,13214,620708,,DIAMOND PARKING  A110,JONATHAN DIAMOND,2062843100           ,"622 BROADWAY E, SEATTLE, WA 98102",25,DIAMOND PARKING  A110,,,,,,,,,,,,,,,N,,,
-122.320610885573,47.6249448987047,13215,645735,,DIAMOND PARKING  A314,JONATHAN DIAMOND,2062846303           ,"622 BROADWAY E, SEATTLE, WA 98102",18,DIAMOND PARKING  A314,,,,,,,,,,,,,,,N,,,
-122.330597373276,47.6176954148641,13216,688894,,IPM MET PARK NORTH,JOAN SUNDBERG,2062540811           ,"1220 HOWELL ST, SEATTLE, WA 98101-1469",585,IPM MET PARK NORTH,,,,,,,,,,,,,,,N,,,
-122.333194315499,47.6054909765001,13217,635357,,DIAMOND PARKING  A966,JONATHAN DIAMOND,2062843100           ,"925 4TH AVE, SEATTLE, WA 98104",500,DIAMOND PARKING  A966,,,,,,,,,,,,,,,N,,,
-122.32921866538,47.6099951370149,13218,529804,,BENAROYA RESEARCH INSTITUTE PARKING,VIRGINIA MASON HOSPITAL,2062236600           ,"1201 9TH AVE, SEATTLE, WA 98101",275,BENAROYA RESEARCH INSTITUTE PARKING,,,,,,,,,,,,,,,N,,,
-122.32921866538,47.6099951370149,13219,726751,,ABM PARKING 6174,,2062670446           ,"1201 9TH AVE, SEATTLE, WA 98101",275,ABM PARKING 6174,,,,,,,,,,,,,,,N,,,
-122.321401524312,47.6124404198401,13220,4597,,U PARK 93,KEN JR PHILLIPS,2062849797           ,"1145 BROADWAY, SEATTLE, WA 98122",30,U PARK 93,,,,,,,,,,,,,,,N,,,
-122.335331788399,47.6065539290974,13221,692708,,ACE PARKING LOT 3275 1111 3RD AVE GARAGE,KEITH JONES,6192336624           ,"1111 3RD AVE, SEATTLE, WA 98101",366,ACE PARKING LOT 3275 1111 3RD AVE GARAGE,,,,,,,,,,,,,,,N,,,
-122.40014286151,47.6670297892438,13222,734646,,REPUBLIC PARKING 30 39,GARY BECK,2067834144           ,"5300 34TH AVE NE, SEATTLE, WA 98109",50,REPUBLIC PARKING 30 39,,,,,,,,,,,,,,,N,,,
-122.321498883021,47.6225612038057,13223,723325,,IMPARK  154,EDWARD DANYLUK,2063811789           ,"401 BROADWAY E, SEATTLE, WA 98102",230,IMPARK  154,,,,,,,,,,,,,,,N,,,
-122.330877062996,47.5987762857172,13224,634905,,DIAMOND PARKING  A005,JONATHAN DIAMOND,2062843100           ,"201 S JACKSON ST, SEATTLE, WA 98104",242,DIAMOND PARKING  A005,,,,,,,,,,,,,,,N,,,
-122.342631508539,47.613160448503,13225,666783,,DIAMOND PARKING  A419,JONATHAN DIAMOND,2062843100           ,"2101 3RD AVE, SEATTLE, WA 98101",22,DIAMOND PARKING  A419,,,,,,,,,,,,,,,N,,,
-122.315623749656,47.5481408677122,13226,730226,,DIAMOND PARKING SERVICES A674,JONATHAN DIAMOND,2062843100           ,"6101 AIRPORT WAY S, SEATTLE, WA 98108",55,DIAMOND PARKING SERVICES A674,,,,,,,,,,,,,,,N,,,
-122.332017279682,47.6090904220822,13227,613634,,ACE PARKING  3278 PARK PLACE BUILDING,KEITH JONES,2069031219           ,"1200 6TH AVE, SEATTLE, WA 98101",165,ACE PARKING  3278 PARK PLACE BUILDING,,,,,,,,,,,,,,,N,,,
-122.332645175634,47.6086654931041,13228,631784,,ACE PARKING  3215 PLYMOUTH CHURCH,KEITH JONES,2066224865           ,"1217 6TH AVE, SEATTLE, WA 98101",85,ACE PARKING  3215 PLYMOUTH CHURCH,,,,,,,,,,,,,,,N,,,
-122.344858808588,47.6108244614773,13229,673394,,REPUBLIC PARKING 30 593 MARKET PLACE GARAGE,GARY BECK,2067834144           ,"65 LENORA ST, SEATTLE, WA 98121",412,REPUBLIC PARKING 30 593 MARKET PLACE GARAGE,,,,,,,,,,,,,,,N,,,
-122.332251950656,47.6031082069306,13230,583930,,UNITED PARKING  4590,JONATHAN DIAMOND,2062846303           ,"213 CHERRY ST, SEATTLE, WA 98104",225,UNITED PARKING  4590,,,,,,,,,,,,,,,N,,,
-122.332631380534,47.6029446849566,13231,695646,,TOWNE PARK LLC,MARK NORWICZ,4102958070           ,"612 2ND AVE, SEATTLE, WA 98104",0,TOWNE PARK LLC,,,,,,,,,,,,,,,N,,,
-122.343172306728,47.6086696476328,13232,593926,,DIAMOND   A172,JONATHAN DIAMOND,2062843100           ,"1524 ALASKAN WAY, SEATTLE, WA 98101",60,DIAMOND   A172,,,,,,,,,,,,,,,N,,,
-122.332062312007,47.6104251878231,13233,165552,,TWO UNION SQUARE  80474 CONSOLIDATED,BILL BEATTIE,2063818552           ,"601 UNION ST, SEATTLE, WA 98101-2341",1016,TWO UNION SQUARE  80474 CONSOLIDATED,,,,,,,,,,,,,,,N,,,
-122.3317399881,47.6019778307948,13234,683342,,IPM  49,JOAN SUNDBERG,2062540811           ,"510 2ND AVE, SEATTLE, WA 98104-2336",10,IPM  49,,,,,,,,,,,,,,,N,,,
-122.374390870058,47.6632721929112,13235,625098,,DIAMOND PARKING  A603,JONATHAN DIAMOND,2062843100           ,"1401 LEARY WAY NW, SEATTLE, WA 98117",32,DIAMOND PARKING  A603,,,,,,,,,,,,,,,N,,,
-122.332818257813,47.6019202230671,13236,726752,,ABM PARKING 6119,,2062670446           ,"501 2ND AVE, SEATTLE, WA 98104",252,ABM PARKING 6119,,,,,,,,,,,,,,,N,,,
-122.322834231183,47.5962491236563,13237,701346,,PARKING,MICHIO TESHIMA,2068388231           ,"701 8TH AVE S, SEATTLE, WA 98104",78,PARKING,,,,,,,,,,,,,,,N,,,
-122.334574599347,47.59989552088,13238,593908,,DIAMOND A039,JONATHAN DIAMOND,2062843100           ,"305 1ST AVE S, SEATTLE, WA 98104",22,DIAMOND A039,,,,,,,,,,,,,,,N,,,
-122.335141264093,47.5995131997816,13239,713214,,UNITED PARKING  4551,JONATHAN DIAMOND,2062843100           ,"74 S JACKSON ST, SEATTLE, WA 98104",218,UNITED PARKING  4551,,,,,,,,,,,,,,,N,,,
-122.321221057158,47.6096922516756,13240,711587,,MILE HI VALET SERVICE INC,MARK NORWICZ,4102676111           ,"819 BOYLSTON AVE, SEATTLE, WA 98104-1333",0,MILE HI VALET SERVICE INC,,,,,,,,,,,,,,,N,,,
-122.32372459517,47.6086207815802,13241,76133,,REPUBLIC PARKING 30 594,GARY BECK,2067834144           ,"1124 COLUMBIA ST, SEATTLE, WA 98104",415,REPUBLIC PARKING 30 594,,,,,,,,,,,,,,,N,,,
-122.321927605525,47.6088420297966,13242,712270,,BROADWAY GARAGE   1392,MARK NORWICZ,4102676111           ,"747 BROADWAY, SEATTLE, WA 98122-4379",1758,BROADWAY GARAGE   1392,,,,,,,,,,,,,,,N,,,
-122.335159285095,47.6019464979,13243,519378,,REPUBLIC PARKING  161,GARY BECK,2067834144           ,"76 YESLER WAY, SEATTLE, WA 98104",35,REPUBLIC PARKING  161,,,,,,,,,,,,,,,N,,,
-122.320133087698,47.6077844157294,13244,670305,, 600 BROADWAY GARAGE,ANTHONY GIARRATANA,6152382250           ,"600 BROADWAY # 128, SEATTLE, WA 98122-5381",355, 600 BROADWAY GARAGE,,,,,,,,,,,,,,,N,,,
-122.38262868847,47.6664581729074,13245,660807,,BALLARD PARKING LLC,JAMES RIGGLE,2067895010           ,"5301 LEARY AVE NW, SEATTLE, WA 98107-4824",0,BALLARD PARKING LLC,,,,,,,,,,,,,,,N,,,
-122.334273146,47.6050461684449,13246,673882,,ACE PARKING  3264 WELLS FARGO GARAGE,KEITH JONES,6192336624           ,"999 3RD AVE, SEATTLE, WA 98104",676,ACE PARKING  3264 WELLS FARGO GARAGE,,,,,,,,,,,,,,,N,,,
-122.344084834763,47.6249474334192,13247,641230,,DIAMOND PARKING  A326,JONATHAN DIAMOND,2062843100           ,"601 AURORA AVE N, SEATTLE, WA 98109",20,DIAMOND PARKING  A326,,,,,,,,,,,,,,,N,,,
-122.332115251077,47.6080926679129,13248,729928,,54431 CROWN PLAZA SEATTLE,BILL BEATTIE,2063818552           ,"1113 6TH AVE, SEATTLE, WA 98101",101,54431 CROWN PLAZA SEATTLE,,,,,,,,,,,,,,,N,,,
-122.332107415219,47.6245903702909,13249,678597,,DIAMOND PARKING  A446,JONATHAN DIAMOND,2062843100           ,"611 PONTIUS AVE N, SEATTLE, WA 98109",7,DIAMOND PARKING  A446,,,,,,,,,,,,,,,N,,,
-122.341068793745,47.6094696318656,13250,13063,,PIKE PLACE MERCHANTS ASSN,JACK MATHEWS,2065870351           ,"1530 POST ALY # STE 6, SEATTLE, WA 98101-1566",0,PIKE PLACE MERCHANTS ASSN,,,,,,,,,,,,,,,N,,,
-122.340131749265,47.6094559956241,13251,560186,,IPM  01,JOAN SUNDBERG,2062540811           ,"1516 1ST AVE, SEATTLE, WA 98101",90,IPM  01,,,,,,,,,,,,,,,N,,,
-122.345101260894,47.6129064599978,13252,577627,,DIAMOND PARKING  A353,JONATHAN DIAMOND,2063843100           ,"2204 1ST AVE, SEATTLE, WA 98121",10,DIAMOND PARKING  A353,,,,,,,,,,,,,,,N,,,
-122.346750016498,47.6126756793594,13253,4545,,U PARK 40,KEN JR PHILLIPS,2062849797           ,"2224 WESTERN AVE, SEATTLE, WA 98121",88,U PARK 40,,,,,,,,,,,,,,,N,,,
-122.333892137093,47.6033098026946,13254,628567,,IMPARK   MILENNIUM BUILDING,EDWARD DANYLUK,2063811789           ,"719 2ND AVE, SEATTLE, WA 98104",204,IMPARK   MILENNIUM BUILDING,,,,,,,,,,,,,,,N,,,
-122.335191860873,47.5986676066366,13255,635378,,450 ALASKA IPM 30,JOAN SUNDBERG,2062540811           ,"76 S KING ST, SEATTLE, WA 98104",116,450 ALASKA IPM 30,,,,,,,,,,,,,,,N,,,
-122.299317348855,47.6646005874251,13256,681391,,DIAMOND PARKING  WU49,JONATHAN DIAMOND,2062843100           ,"4900 25TH AVE NE, SEATTLE, WA 98115",25,DIAMOND PARKING  WU49,,,,,,,,,,,,,,,N,,,
-122.333674156186,47.5940318177767,13257,656603,,DIAMOND PARKING  A362,JONATHAN DIAMOND,2062843100           ,"1000 1ST AVE S, SEATTLE, WA 98134",25,DIAMOND PARKING  A362,,,,,,,,,,,,,,,N,,,
-122.33486412584,47.5920188038746,13258,4590,,U PARK 86,KEN JR PHILLIPS,2062849797           ,"1201 1ST AVE S, SEATTLE, WA 98101",224,U PARK 86,,,,,,,,,,,,,,,N,,,
-122.334867873281,47.5908086109913,13259,595335,,DIAMOND  A133,JONATHAN DIAMOND,2062843100           ,"1251 1ST AVE S, SEATTLE, WA 98134",60,DIAMOND  A133,,,,,,,,,,,,,,,N,,,
-122.333706700162,47.5942581614023,13260,593898,,DIAMOND PARKING A028,JONATHAN DIAMOND,2062843100           ,"922 1ST AVE S, SEATTLE, WA 98104",46,DIAMOND PARKING A028,,,,,,,,,,,,,,,N,,,
-122.334723404423,47.5899501090707,13261,576428,,IPM  HOMEPLATE,JOAN SUNDBERG,2062540811           ,"1501 1ST AVE S, SEATTLE, WA 98134",299,IPM  HOMEPLATE,,,,,,,,,,,,,,,N,,,
-122.324148109623,47.5964438679676,13262,17663,,INTL DIST PARKING  43,MICHAEL OLSON,2066243426           ,"666 S DEARBORN ST, SEATTLE, WA 98104",75,INTL DIST PARKING  43,,,,,,,,,,,,,,,N,,,
-122.328390550269,47.5943947619113,13263,593927,,DIAMOND   A235,JONATHAN DIAMOND,2062843100           ,"1000 4TH AVE S, SEATTLE, WA 98134",150,DIAMOND   A235,,,,,,,,,,,,,,,N,,,
-122.326704903325,47.5941625005068,13264,576754,,DIAMOND PARKING  A848,JONATHAN DIAMOND,2062846303           ,"1005 6TH AVE S, SEATTLE, WA 98134",350,DIAMOND PARKING  A848,,,,,,,,,,,,,,,N,,,
-122.328646474017,47.5955962130107,13265,537623,,UNION STATION PARKING GARAGE SOUTH,JOAN SUNDBERG,2069327809           ,"820 4TH AVE S, SEATTLE, WA 98104",684,UNION STATION PARKING GARAGE SOUTH,,,,,,,,,,,,,,,N,,,
-122.385993182139,47.5832415507812,13266,657255,,DIAMOND PARKING  A386,JONATHAN DIAMOND,2062843100           ,"2222 CALIFORNIA AVE SW, SEATTLE, WA 98116",30,DIAMOND PARKING  A386,,,,,,,,,,,,,,,N,,,
-122.335664540731,47.5892395230857,13267,636326,,IPM  37,JOAN SUNDBERG,2062540811           ,"1531 UTAH AVE S, SEATTLE, WA 98134",220,IPM  37,,,,,,,,,,,,,,,N,,,
-122.333682326615,47.5887660135003,13268,584049,,DIAMOND PARKING  A944,JONATHAN DIAMOND,2062846303           ,"1560 1ST AVE S, SEATTLE, WA 98134",241,DIAMOND PARKING  A944,,,,,,,,,,,,,,,N,,,
-122.333543447591,47.5871967963385,13269,670656,,DIAMOND PARKING  A428,JONATHAN DIAMOND,2062843100           ,"1730 1ST AVE S, SEATTLE, WA 98134",7,DIAMOND PARKING  A428,,,,,,,,,,,,,,,N,,,
-122.333730652594,47.5870574344448,13270,669468,,DIAMOND PARKING  A423,JONATHAN DIAMOND,2062843100           ,"1740 1ST AVE S, SEATTLE, WA 98134",25,DIAMOND PARKING  A423,,,,,,,,,,,,,,,N,,,
-122.333780452477,47.586430153418,13271,669467,,DIAMOND PARKING  A408,JONATHAN DIAMOND,2062843100           ,"1760 1ST AVE S, SEATTLE, WA 98134",48,DIAMOND PARKING  A408,,,,,,,,,,,,,,,N,,,
-122.334856805522,47.5855980148303,13272,638431,,DIAMOND PARKING  A307,JONATHAN DIAMOND,2062843100           ,"1915 1ST AVE S, SEATTLE, WA 98134",15,DIAMOND PARKING  A307,,,,,,,,,,,,,,,N,,,
-122.334656070811,47.5843984513055,13273,635169,,DIAMOND PARKING  A817,JONATHAN DIAMOND,2062846303           ,"1955 1ST AVE S, SEATTLE, WA 98134",75,DIAMOND PARKING  A817,,,,,,,,,,,,,,,N,,,
-122.334669066532,47.5836511691168,13274,625113,,DIAMOND PARKING  A606,JONATHAN DIAMOND,2062843100           ,"2203 1ST AVE S, SEATTLE, WA 98134",52,DIAMOND PARKING  A606,,,,,,,,,,,,,,,N,,,
-122.333758494483,47.5825794823707,13275,4602,,U PARK 098,KEN JR PHILLIPS,2066245353           ,"2246 1ST AVE S, SEATTLE, WA 98134",56,U PARK 098,,,,,,,,,,,,,,,N,,,
-122.332642312397,47.5878095684279,13276,596107,,DIAMOND  A883,JONATHAN DIAMOND,2062843100           ,"1750 OCCIDENTAL AVE S, SEATTLE, WA 98134",210,DIAMOND  A883,,,,,,,,,,,,,,,N,,,
-122.329346581738,47.5871788779754,13277,577228,,DIAMOND PARKING  A842,JONATHAN DIAMOND,2062846303           ,"1731 4TH AVE S, SEATTLE, WA 98134",50,DIAMOND PARKING  A842,,,,,,,,,,,,,,,N,,,
-122.325009052422,47.5868546219853,13278,582320,,STREAM PARKING,SCOTT STREAM,2063613797           ,"1762 6TH AVE S, SEATTLE, WA 98134",84,STREAM PARKING,,,,,,,,,,,,,,,N,,,
-122.329389038735,47.5863843628849,13279,653863,,DIAMOND PARKING  A265,JONATHAN DIAMOND,2062843100           ,"1763 4TH AVE S, SEATTLE, WA 98134",34,DIAMOND PARKING  A265,,,,,,,,,,,,,,,N,,,
-122.332894762796,47.5830512523867,13280,714355,,DIAMOND PARKING  A643,JONATHAN DIAMOND,2062843100           ,"2228 OCCIDENTAL AVE S, SEATTLE, WA 98134",60,DIAMOND PARKING  A643,,,,,,,,,,,,,,,N,,,
-122.333424423904,47.5894451416447,13281,682649,,HENRYS LOT,ANTHONY GIARRATANA,6152382250           ,"1526 1ST AVE S, SEATTLE, WA 98134-1402",30,HENRYS LOT,,,,,,,,,,,,,,,N,,,
-122.328365878295,47.5872001299918,13282,643028,,EASY OUT PARKING,KURT BRAY,2062321883           ,"1732 4TH AVE S, SEATTLE, WA 98134",108,EASY OUT PARKING,,,,,,,,,,,,,,,N,,,
-122.385418841965,47.5821998904798,13283,583989,,UNITED PARKING  4506,JONATHAN DIAMOND,2062846303           ,"2331 42ND AVE SW, SEATTLE, WA 98116",101,UNITED PARKING  4506,,,,,,,,,,,,,,,N,,,
-122.336239056637,47.5759523220071,13284,663569,,IPM  42,JOAN SUNDBERG,2062540811           ,"66 S HANFORD ST, SEATTLE, WA 98134-1826",0,IPM  42,,,,,,,,,,,,,,,N,,,
-122.332625038782,47.5821733286501,13285,630527,,DIAMOND PARKING A 984,JONATHAN DIAMOND,2062843100           ,"2250 OCCIDENTAL AVE S, SEATTLE, WA 98134",80,DIAMOND PARKING A 984,,,,,,,,,,,,,,,N,,,
-122.325104907523,47.5791278006692,13286,705816,,LOT 60,JOAN SUNDBERG,2062540811           ,"2724 6TH PL S, SEATTLE, WA 98134-2129",0,LOT 60,,,,,,,,,,,,,,,N,,,
-122.333791033948,47.5779370511238,13287,673490,,DIAMOND PARKING  A436,JONATHAN DIAMOND,2062843100           ,"2764 1ST AVE S, SEATTLE, WA 98134",51,DIAMOND PARKING  A436,,,,,,,,,,,,,,,N,,,
-122.327891579832,47.5758677196554,13288,733396,,IMPARK 81,EDWARD DANYLUK,2063811789           ,"2960 4TH AVE S, SEATTLE, WA 98124",25,IMPARK 81,,,,,,,,,,,,,,,N,,,
-122.298733997025,47.5770135604822,13289,632003,,DIAMOND PARKING  A981,JONATHAN DIAMOND,2062843100           ,"2929 27TH AVE S, SEATTLE, WA 98144",75,DIAMOND PARKING  A981,,,,,,,,,,,,,,,N,,,
-122.295616477005,47.5755280230941,13290,645765,,DIAMOND PARKING  A942,JONATHAN DIAMOND,2062846303           ,"3100 RAINIER AVE S, SEATTLE, WA 98144",19,DIAMOND PARKING  A942,,,,,,,,,,,,,,,N,,,
-122.38789169056,47.5613665928826,13291,581998,,DIAMOND PARKING   A281,JONATHAN DIAMOND,2069929475           ,"4314 SW ALASKA ST, SEATTLE, WA 98116",30,DIAMOND PARKING   A281,,,,,,,,,,,,,,,N,,,
-122.386455905884,47.5631160292341,13292,719613,,DIAMOND PARKING  A656,JONATHAN DIAMOND,2062843100           ,"4452 CALIFORNIA AVE SW, SEATTLE, WA 98116",15,DIAMOND PARKING  A656,,,,,,,,,,,,,,,N,,,
-122.386378304076,47.565078711695,13293,596089,,DIAMOND PARKING  A627,JONATHAN DIAMOND,2062843100           ,"4150 CALIFORNIA AVE SW, SEATTLE, WA 98116",48,DIAMOND PARKING  A627,,,,,,,,,,,,,,,N,,,
-122.276511461362,47.5659237527802,13294,523313,,WILLIS & SONS,VORN WILLIS,2067227236           ,"4114 45TH AVE S, SEATTLE, WA 98118",100,WILLIS & SONS,,,,,,,,,,,,,,,N,,,
-122.276511461362,47.5659237527802,13295,523313,,WILLIS & SONS,VORN WILLIS,2067227236           ,"4114 45TH AVE S, SEATTLE, WA 98118",100,WILLIS & SONS,,,,,,,,,,,,,,,N,,,
-122.387133537919,47.5609664426511,13296,571455,,DIAMOND PARKING  A831,JONATHAN DIAMOND,2062843100           ,"4701 CALIFORNIA AVE SW, SEATTLE, WA 98116",18,DIAMOND PARKING  A831,,,,,,,,,,,,,,,N,,,
-122.384793963163,47.5608074273406,13297,584046,,DIAMOND PARKING  A941,JONATHAN DIAMOND,2062846303           ,"4704 42ND AVE SW, SEATTLE, WA 98116",213,DIAMOND PARKING  A941,,,,,,,,,,,,,,,N,,,
-122.385785645747,47.5594791088304,13298,583157,,DIAMOND PARKING  A932,JONATHAN DIAMOND,2062846303           ,"4200 SW EDMUNDS ST, SEATTLE, WA 98116",36,DIAMOND PARKING  A932,,,,,,,,,,,,,,,N,,,
-122.284794364872,47.5567683939519,13299,652236,,DIAMOND PARKING  A363,JONATHAN DIAMOND,2063843100           ,"5001 RAINIER AVE S, SEATTLE, WA 98118",14,DIAMOND PARKING  A363,,,,,,,,,,,,,,,N,,,
-122.330299033162,47.5448754868708,13300,672193,,DIAMOND PARKING  A425,JONATHAN DIAMOND,2062843100           ,"303 S MICHIGAN ST, SEATTLE, WA 98108",35,DIAMOND PARKING  A425,,,,,,,,,,,,,,,N,,,
-122.283077367473,47.5374740404282,13301,595312,,DIAMOND PARKING  A985,JONATHAN DIAMOND,2062843100           ,"3900 S OTHELLO ST, SEATTLE, WA 98118",31,DIAMOND PARKING  A985,,,,,,,,,,,,,,,N,,,
-122.31475021307,47.5234134081022,13302,655420,,AMAZON.COM SHUTTLE LOT 81123 NO PS,BILL BEATTIE,2066247040           ,"8914 14TH AVE S, SEATTLE, WA 98108-4814",0,AMAZON.COM SHUTTLE LOT 81123 NO PS,,,,,,,,,,,,,,,N,,,
-122.30487904679,47.6637724751305,13303,660329,,REPUBLIC PARKING 46 IVY RIDGE APTS,GARY BECK,2067834144           ,"4730 21ST AVE NE, SEATTLE, WA 98105",11,REPUBLIC PARKING 46 IVY RIDGE APTS,,,,,,,,,,,,,,,N,,,
-122.312807555129,47.6501469031766,13304,76124,,REPUBLIC PARKING  203,GARY BECK,2067834144           ,"1401 NE BOAT ST, SEATTLE, WA 98105",310,REPUBLIC PARKING  203,,,,,,,,,,,,,,,N,,,
-122.311820172308,47.6190061734579,13305,684528,,ACE PARKING  3270 GROUP HEALTH CAPITOL HILL,KEITH JONES,6192336624           ,"125 16TH AVE E, SEATTLE, WA 98112",880,ACE PARKING  3270 GROUP HEALTH CAPITOL HILL,,,,,,,,,,,,,,,N,,,
-122.335603341953,47.6238338845895,13306,637745,,AMAZON PHASE 2 82171,BILL BEATTIE,2063818552           ,"500 BOREN AVE N, SEATTLE, WA 98109-5501",259,AMAZON PHASE 2 82171,,,,,,,,,,,,,,,N,,,
-122.311623464893,47.6236417934546,13307,628636,,REPUBLIC PARKING 30 559 SWEDISH CHERRY HILL,GARY BECK,2067834144           ,"511 16TH AVE E, SEATTLE, WA 98112",726,REPUBLIC PARKING 30 559 SWEDISH CHERRY HILL,,,,,,,,,,,,,,,N,,,
-122.327295488679,47.6010734506974,13308,4592,,U PARK 88,KEN JR PHILLIPS,2062849797           ,"120 5TH AVE S, SEATTLE, WA 98104",70,U PARK 88,,,,,,,,,,,,,,,N,,,
-122.332252036601,47.6041087781979,13309,687301,,REPUBLIC PARKING 30 79,GARY BECK,2067834144           ,"720 3RD AVE, SEATTLE, WA 98104",216,REPUBLIC PARKING 30 79,,,,,,,,,,,,,,,N,,,
-122.331935300857,47.6037588145473,13310,654844,,ARCTIC CLUB VALET SVC ONLY NO PS LIC REQUIRED,KEITH JONES,6192336624           ,"700 3RD AVE, SEATTLE, WA 98104",0,ARCTIC CLUB VALET SVC ONLY NO PS LIC REQUIRED,,,,,,,,,,,,,,,N,,,
-122.33149215429,47.6040052273893,13311,583926,,UNITED PARKING 4560 4561,JONATHAN DIAMOND,2062846303           ,"701 4TH AVE, SEATTLE, WA 98104",105,UNITED PARKING 4560 4561,,,,,,,,,,,,,,,N,,,
-122.322815681343,47.6081893158495,13312,711435,,MILE HI VALET SERVICE INC,MARK NORWICZ,4102676111           ,"1115 COLUMBIA ST, SEATTLE, WA 98104-2009",0,MILE HI VALET SERVICE INC,,,,,,,,,,,,,,,N,,,
-122.321103485213,47.6077827028348,13313,711576,,SOI GARAGE  1393,MARK NORWICZ,4102676111           ,"601 BROADWAY, SEATTLE, WA 98122-5330",864,SOI GARAGE  1393,,,,,,,,,,,,,,,N,,,
-122.322528442682,47.6069772413804,13314,711578,,MINOR AVE GARAGE   1394,MARK NORWICZ,4102676111           ,"601 MINOR, SEATTLE, WA 98104",2070,MINOR AVE GARAGE   1394,,,,,,,,,,,,,,,N,,,
-122.321566015247,47.6066253969223,13315,704189,,IMPARK  132,EDWARD DANYLUK,2063811789           ,"515 MINOR AVE, SEATTLE, WA 98101",297,IMPARK  132,,,,,,,,,,,,,,,N,,,
-122.320569226046,47.6063888920416,13316,595349,,DIAMOND  A161,JONATHAN DIAMOND,2062843100           ,"500 BROADWAY, SEATTLE, WA 98122",13,DIAMOND  A161,,,,,,,,,,,,,,,N,,,
-122.319005236227,47.6060245396934,13317,645758,,DIAMOND PARKING  A336,JONATHAN DIAMOND,2062846303           ,"1005 E JEFFERSON ST, SEATTLE, WA 98122",20,DIAMOND PARKING  A336,,,,,,,,,,,,,,,N,,,
-122.32045582617,47.6057088830045,13318,725606,,DIAMOND PARKING SERVICES A662,JONATHAN DIAMOND,2062843100           ,"412 BROADWAY, SEATTLE, WA 98122",4,DIAMOND PARKING SERVICES A662,,,,,,,,,,,,,,,N,,,
-122.319736576567,47.6045621464531,13319,682462,,DIAMOND PARKING  A459,JONATHAN DIAMOND,2062843100           ,"303 10TH AVE, SEATTLE, WA 98122",15,DIAMOND PARKING  A459,,,,,,,,,,,,,,,N,,,
-122.315630301388,47.6033293182779,13320,625120,,DIAMOND PARKING  A619,JONATHAN DIAMOND,2062843100           ,"1225 E SPRUCE ST, SEATTLE, WA 98122",28,DIAMOND PARKING  A619,,,,,,,,,,,,,,,N,,,
-122.316361385297,47.6085694431035,13321,593914,,DIAMOND  A846 A,JONATHAN DIAMOND,2062843100           ,"728 12TH AVE, SEATTLE, WA 98112",19,DIAMOND  A846 A,,,,,,,,,,,,,,,N,,,
-122.309656417664,47.6070547773372,13322,711579,,CHERRY HILL PLAZA GARAGE 1396,MARK NORWICZ,4102676111           ,"500 17TH AVE, SEATTLE, WA 98122-5711",90,CHERRY HILL PLAZA GARAGE 1396,,,,,,,,,,,,,,,N,,,
-122.334336337044,47.6031091380531,13323,742851,,LOT #178,EDWARD DANYLUK,2063811789           ,"714 1ST AVE, SEATTLE, WA 98104",220,LOT #178,,,,,,,,,,,,,,,N,,,
-122.336589861142,47.6029785501816,13324,583924,,UNITED PARKING  4552,JONATHAN DIAMOND,2062843100           ,"811 WESTERN AVE, SEATTLE, WA 98104",139,UNITED PARKING  4552,,,,,,,,,,,,,,,N,,,
-122.334368361846,47.601965374065,13325,577714,,UNITED PARKING SERVICES LLC,JONATHAN DIAMOND,2069929942           ,"605 1ST AVE # 600, SEATTLE, WA 98104",0,UNITED PARKING SERVICES LLC,,,,,,,,,,,,,,,N,,,
-122.334368361846,47.601965374065,13326,1571,,DIAMOND PARKING,BOB TURLEY,2062846303           ,"605 1ST AVE # 600, SEATTLE, WA 98104",0,DIAMOND PARKING,,,,,,,,,,,,,,,N,,,
-122.334368361846,47.601965374065,13327,571386,,DIAMOND PARKING SERVICES LLC,JONATHAN DIAMOND,2069929475           ,"605 1ST AVE # 600, SEATTLE, WA 98104",0,DIAMOND PARKING SERVICES LLC,,,,,,,,,,,,,,,N,,,
-122.334368361846,47.601965374065,13328,577714,,UNITED PARKING SERVICES LLC,JONATHAN DIAMOND,2062843100           ,"605 1ST AVE # 600, SEATTLE, WA 98104",0,UNITED PARKING SERVICES LLC,,,,,,,,,,,,,,,N,,,
-122.334368361846,47.601965374065,13329,571386,,DIAMOND PARKING SERVICES LLC,JONATHAN DIAMOND,2062843100           ,"605 1ST AVE # 600, SEATTLE, WA 98104",0,DIAMOND PARKING SERVICES LLC,,,,,,,,,,,,,,,N,,,
-122.334368361846,47.601965374065,13330,36277,,UNITED PARKING INC,JONATHAN DIAMOND,2062843100           ,"605 1ST AVE # 600, SEATTLE, WA 98104",0,UNITED PARKING INC,,,,,,,,,,,,,,,N,,,
-122.334368361846,47.601965374065,13331,36277,,UNITED PARKING INC,JONATHAN DIAMOND,2064367231           ,"605 1ST AVE # 600, SEATTLE, WA 98104",0,UNITED PARKING INC,,,,,,,,,,,,,,,N,,,
-122.334368361846,47.601965374065,13332,1571,,DIAMOND PARKING,BOB TURLEY,2066846303           ,"605 1ST AVE # 600, SEATTLE, WA 98104",0,DIAMOND PARKING,,,,,,,,,,,,,,,N,,,
-122.334368361846,47.601965374065,13333,571386,,DIAMOND PARKING SERVICES LLC,JONATHAN DIAMOND,2064367266           ,"605 1ST AVE # 600, SEATTLE, WA 98104",0,DIAMOND PARKING SERVICES LLC,,,,,,,,,,,,,,,N,,,
-122.334368361846,47.601965374065,13334,571386,,DIAMOND PARKING SERVICES LLC,JONATHAN DIAMOND,2062846303           ,"605 1ST AVE # 600, SEATTLE, WA 98104",0,DIAMOND PARKING SERVICES LLC,,,,,,,,,,,,,,,N,,,
-122.334368361846,47.601965374065,13335,593906,,DIAMOND A035,JONATHAN DIAMOND,2062843100           ,"615 1ST AVE, SEATTLE, WA 98104",34,DIAMOND A035,,,,,,,,,,,,,,,N,,,
-122.334673712008,47.5976659442473,13336,688895,,IPM 505 FIRST AVE,JOAN SUNDBERG,2062540811           ,"505 1ST AVE S, SEATTLE, WA 98104-2803",440,IPM 505 FIRST AVE,,,,,,,,,,,,,,,N,,,
-122.33655861781,47.6028418388208,13337,684468,,UNITED PARKING  4578,JONATHAN DIAMOND,2062843100           ,"801 WESTERN AVE, SEATTLE, WA 98104",47,UNITED PARKING  4578,,,,,,,,,,,,,,,N,,,
-122.327408891114,47.6003962172421,13338,17646,,INTL DISTRICT MERCHANTS PARKING ASSN,MICHAEL OLSON,2066243426           ,"214 5TH AVE S, SEATTLE, WA 98104",36,INTL DISTRICT MERCHANTS PARKING ASSN,,,,,,,,,,,,,,,N,,,
-122.326755406181,47.5989716299424,13339,695092,,BOA S JACKSON ST,ALAN LAZOWSKI,8605227641           ,"525 S JACKSON ST, SEATTLE, WA 98104-2828",31,BOA S JACKSON ST,,,,,,,,,,,,,,,N,,,
-122.326051105683,47.5989785977549,13340,17648,,INTL DIST MERCHANTS  02,MICHAEL OLSON,2066243426           ,"601 S JACKSON ST, SEATTLE, WA 98104",23,INTL DIST MERCHANTS  02,,,,,,,,,,,,,,,N,,,
-122.324156098419,47.598983375342,13341,705815,,LOT 57,JOAN SUNDBERG,2062540811           ,"677 S JACKSON ST, SEATTLE, WA 98104-2928",36,LOT 57,,,,,,,,,,,,,,,N,,,
-122.3268740716,47.5969843713814,13342,543207,,IPM  UV,JOAN SUNDBERG,2069327809           ,"600 5TH AVE S, SEATTLE, WA 98104",365,IPM  UV,,,,,,,,,,,,,,,N,,,
-122.326009495187,47.5970130869198,13343,17659,,INTL DIST MERCHANTS  27,MICHAEL OLSON,2066243426           ,"616 6TH AVE S, SEATTLE, WA 98104",30,INTL DIST MERCHANTS  27,,,,,,,,,,,,,,,N,,,
-122.324736905973,47.596971389556,13344,653864,,DIAMOND PARKING  A218,JONATHAN DIAMOND,2062813100           ,"614 MAYNARD AVE S, SEATTLE, WA 98104",36,DIAMOND PARKING  A218,,,,,,,,,,,,,,,N,,,
-122.329021359807,47.6023930869239,13345,690380,,DIAMOND PARKING  A474,JONATHAN DIAMOND,2062843100           ,"414 4TH AVE, SEATTLE, WA 98104",28,DIAMOND PARKING  A474,,,,,,,,,,,,,,,N,,,
-122.328766267159,47.6021140862607,13346,594731,,UNITED PARKING  4507,JONATHAN DIAMOND,2062846303           ,"400 4TH AVE, SEATTLE, WA 98104",41,UNITED PARKING  4507,,,,,,,,,,,,,,,N,,,
-122.328766267159,47.6021140862607,13347,593923,,DIAMOND   A260,JONATHAN DIAMOND,2062843100           ,"400 4TH AVE, SEATTLE, WA 98104",68,DIAMOND   A260,,,,,,,,,,,,,,,N,,,
-122.326601210152,47.6013812869492,13348,17658,,INTL DIST MERCHANTS  25,MICHAEL OLSON,2066243426           ,"537 YESLER WAY, SEATTLE, WA 98104",30,INTL DIST MERCHANTS  25,,,,,,,,,,,,,,,N,,,
-122.332480333114,47.6012286968168,13349,667143,,DIAMOND PARKING  A402,JONATHAN DIAMOND,2062843100           ,"112 OCCIDENTAL AVE S, SEATTLE, WA 98104",56,DIAMOND PARKING  A402,,,,,,,,,,,,,,,N,,,
-122.328587221602,47.6005480567787,13350,4558,,U PARK 53,KEN JR PHILLIPS,2062849797           ,"425 S WASHINGTON ST, SEATTLE, WA 98104",539,U PARK 53,,,,,,,,,,,,,,,N,,,
-122.326732293838,47.6005449953763,13351,635161,,DIAMOND PARKING  A085,JONATHAN DIAMOND,2062846303           ,"251 6TH AVE S, SEATTLE, WA 98104",24,DIAMOND PARKING  A085,,,,,,,,,,,,,,,N,,,
-122.328444228841,47.6002936386456,13352,543206,,IPM  08,JOAN SUNDBERG,2069327809           ,"412 S MAIN ST, SEATTLE, WA 98104",52,IPM  08,,,,,,,,,,,,,,,N,,,
-122.322742887318,47.5972214575926,13353,507314,,MERCHANTS PARKING ASSOC  46,MICHAEL OLSON,2066243426           ,"607 8TH AVE S, SEATTLE, WA 98104",7,MERCHANTS PARKING ASSOC  46,,,,,,,,,,,,,,,N,,,
-122.315528706889,47.6029406143689,13354,625114,,DIAMOND PARKING  A609,JONATHAN DIAMOND,2062843100           ,"1230 E FIR ST, SEATTLE, WA 98122",60,DIAMOND PARKING  A609,,,,,,,,,,,,,,,N,,,
-122.312483677166,47.6024983900739,13355,738918,,DIAMOND PARKING A696,JONATHAN DIAMOND,2062843100           ,"126 15TH AVE, SEATTLE, WA 98122",11,DIAMOND PARKING A696,,,,,,,,,,,,,,,N,,,
-122.316746844937,47.5996049605872,13356,728485,,DIAMOND PARKING SERVICES A667,JONATHAN DIAMOND,2062843100           ,"1200 S JACKSON ST, SEATTLE, WA 98144",46,DIAMOND PARKING SERVICES A667,,,,,,,,,,,,,,,N,,,
-122.321805710674,47.5969113646925,13357,730227,,DIAMOND PARKING SERVICES A675,JONATHAN DIAMOND,2062843100           ,"616 8TH AVE S, SEATTLE, WA 98104",12,DIAMOND PARKING SERVICES A675,,,,,,,,,,,,,,,N,,,
-122.322187165746,47.5903945695495,13358,635171,,DIAMOND PARKING  A232,JONATHAN DIAMOND,2062846303           ,"1410 AIRPORT WAY S, SEATTLE, WA 98134",26,DIAMOND PARKING  A232,,,,,,,,,,,,,,,N,,,
-122.393199270305,47.6688931715919,13359,737906,,REPUBLIC 30 181,GARY BECK,2067834144           ,"2804 NW MARKET ST, SEATTLE, WA 98107-4214",21,REPUBLIC 30 181,,,,,,,,,,,,,,,N,,,
-122.386338987914,47.6699954585551,13360,635360,,DIAMOND PARKING  WU21,JONATHAN DIAMOND,2062843100           ,"2237 NW 57TH ST, SEATTLE, WA 98107",45,DIAMOND PARKING  WU21,,,,,,,,,,,,,,,N,,,
-122.383254977623,47.6696247640352,13361,713288,,DIAMOND PARKING A645,JONATHAN DIAMOND,2062843100           ,"2012 NW 56TH ST, SEATTLE, WA 98107",14,DIAMOND PARKING A645,,,,,,,,,,,,,,,N,,,
-122.385124234069,47.6692877792814,13362,625128,,DIAMOND PARKING  WU14,JONATHAN DIAMOND,2062843100           ,"5511 22ND AVE NW, SEATTLE, WA 98107",24,DIAMOND PARKING  WU14,,,,,,,,,,,,,,,N,,,
-122.387157100049,47.6691839549749,13363,731132,,DIAMOND PARKING SERVICES LLC A679,JONATHAN DIAMOND,2062843100           ,"5514 24TH AVE NW, SEATTLE, WA 98107",10,DIAMOND PARKING SERVICES LLC A679,,,,,,,,,,,,,,,N,,,
-122.386267242824,47.6690793107327,13364,76131,,REPUBLIC PARKING  190,GARY BECK,2067284457           ,"2232 NW MARKET ST, SEATTLE, WA 98107",35,REPUBLIC PARKING  190,,,,,,,,,,,,,,,N,,,
-122.382756580674,47.6689544023582,13365,713287,,DIAMOND PARKING A644,JONATHAN DIAMOND,2062843100           ,"2010 NW MARKET ST, SEATTLE, WA 98107",41,DIAMOND PARKING A644,,,,,,,,,,,,,,,N,,,
-122.382500815267,47.6696497293222,13366,736646,,U PARK 10,KEN JR PHILLIPS,2064239554           ,"2004 NW 56TH ST, SEATTLE, WA 98107",11,U PARK 10,,,,,,,,,,,,,,,N,,,
-122.392067423779,47.6683107836116,13367,737907,,REPUBLIC 30 165 BALLARD NORDIC MUSEUM,GARY BECK,2067834144           ,"2655 NW MARKET ST, SEATTLE, WA 98107",78,REPUBLIC 30 165 BALLARD NORDIC MUSEUM,,,,,,,,,,,,,,,N,,,
-122.39442014909,47.6667869570537,13368,629202,,REPUBLIC PARKING 30 241 JACOBSON TERMINAL,GARY BECK,2067834144           ,"5350 30TH AVE NW, SEATTLE, WA 98107",44,REPUBLIC PARKING 30 241 JACOBSON TERMINAL,,,,,,,,,,,,,,,N,,,
-122.381267876616,47.6685010696521,13369,584054,,DIAMOND PARKING  WU04,JONATHAN DIAMOND,2062846303           ,"1819 NW MARKET ST, SEATTLE, WA 98107",7,DIAMOND PARKING  WU04,,,,,,,,,,,,,,,N,,,
-122.332625189515,47.6190221272411,13370,2000018,,CITY LIGHT LOT 41841,, ,,115,City Light Lot #41841,Self park location,Self park location,Self park location,SURFACE LOT,3,10,10,10,,Standard Parking Plus,(206) 381-8552,,,,N,Standard,,
-122.335565602364,47.6240568860788,13371,2000008,,AMAZON PHASE 3 - 81876,, ,,371,AMAZON PHASE 3 #81876,Self park location,Self park location,Self park location,GARAGE,Permit only,Permit only,Permit only,Permit only,,Standard Parking Plus,(206) 467-1810,,,,N,Standard,,
-122.340127745175,47.6213846623964,13372,2000016,,ANALYTICAL RESOURCES 81879,, ,,30,Analytical Resources #81879,Self park location,Self park location,Self park location,SURFACE LOT,Permit only,Permit only,Permit only,Permit only,,Standard Parking Plus,(206) 381-8552,,,,N,Standard,,
-122.340135310904,47.6139959886881,13373,2000017,,CINERAMA LOT 81097,, ,,77,Cinerama #81097,Self park location,Self park location,Self park location,SURFACE LOT,4.9,9.8,12.2,14.65,,Standard Parking Plus,(206) 381-8552,,,,N,Standard,,
-122.387764274413,47.5625866336262,13374,2000001,,WEST SEATTLE JUNCTION ASSOCIATION,, ,,,,,,,,,,,,,,(206) 935-0904,,http://wsjunction.org/maps/,,N,WEST SEATTLE JUNCTION ASSOCIATION,0,
-122.333064038293,47.5976433116907,13375,2000026,,STADIUM PLACE,,,,75,STADIUM PLACE,6am - 10pm / 12am Fri,8am - 12am,8am - 10pm,GARAGE,3,6,9,,,International Parking Management,(206)254-0811,,http://www.ipmseattle.com/locations/lot.asp?id=492,,N,STADIUM PLACE,17,G15
-122.338825411611,47.6249778199421,13376,2000007,,FOLEY - GREEN  #82018,, ,,21,Foley - Green  #82018,Self park location,Self park location,Self park location,SURFACE LOT,Permit only,Permit only,Permit only,Permit only,,Standard Parking Plus,(206) 381-8552,,,,N,Standard,,
-122.387733480495,47.5608677103169,13377,2000003,,WEST SEATTLE JUNCTION ASSOCIATION,, ,,,,,,,,,,,,,,(206) 935-0904,,http://wsjunction.org/maps/,,N,WEST SEATTLE JUNCTION ASSOCIATION,0,
-122.385811296285,47.562206420598,13378,2000002,,WEST SEATTLE JUNCTION ASSOCIATION,, ,,,,,,,,,,,,,,(206) 935-0904,,http://wsjunction.org/maps/,,N,WEST SEATTLE JUNCTION ASSOCIATION,0,
-122.339368869538,47.623947886364,13379,2000025,,MERCER & WESTLAKE 81386,, ,,94,MERCER & WESTLAKE #81386,Self park location,Self park location,Self park location,SURFACE LOT,4.9,14.65,14.65,14.65,,Standard Parking Plus,(206) 381-8552,,,,N,Standard,,
-122.338088103427,47.6240255761927,13380,2000023,,AMAZON PHASE 1B - 81866,, ,,152,AMAZON PHASE 1B #81866,Self park location,Self park location,Self park location,GARAGE,Permit only,Permit only,Permit only,Permit only,,Standard Parking Plus,(206) 623-2727 EXT 225,,,,N,Standard,,
-122.332781218008,47.611496345527,13381,2000027,,,,,"701 PIKE ST, SEATTLE WA 98101",,One Convention Place,,,,,,,,,,,,,,,N,ONE CONVENTION PLACE,25,G20
-122.38780948367,47.5594782054029,13382,2000004,,WEST SEATTLE JUNCTION ASSOCIATION,, ,,,,,,,,,,,,,,,,,,N,WEST SEATTLE JUNCTION ASSOCIATION,0,
-122.334776049442,47.5980652271196,13383,2000022,International Parking Management Seattle,I P M #28,, ,"505 1ST AVE S, SEATTLE, WA 98104",440,Lot 28,Self park location,Self park location,Self park location,GARAGE,5,12,14,,,International Parking Management,(206)254-0811,,http://www.ipmseattle.com/locations/lot.asp?id=501,,N,IPM,,
-122.326743560014,47.5989758301098,13384,2000010,,BANK OF AMERICA INTL BANKING #81963,, ,"525 S JACKSON ST, SEATTLE, WA 98104",34,Bank of America Intl  Banking #81963,Self park location,Self park location,Self park location,SURFACE LOT,Permit only,Permit only,Permit only,Permit only,,Standard Parking Plus,(206) 381-8552,,,,N,Standard,,
-122.342377741866,47.6124550209108,13385,2000020,REPUBLIC PARKING NW INC,211 LENORA 81957,, ,"211 LENORA, SEATTLE, WA 98121",102,211 Lenora,Self park location,Self park location,Self park location,GARAGE,,,,,,Republic Parking Northwest,,,http://www.rpnw.com/lot/seattle/30-077,,N,,,
-122.335551594682,47.613216784875,13386,2000005,,PACIFIC PLACE,, ,,1130,PACIFIC PLACE,5:00am - 2:00am,5:00am - 2:00am,5:00am - 2:00am,GARAGE,6,9,11,28,,AMPCO,(206) 652-9009,,http://www.pacificplaceseattle.com/details/parking/,,N,PACIFIC PLACE,5,G4
-122.336180478965,47.6217843880999,13387,2000015,,AMAZON PHASE 4 - 81877,, ,,784,AMAZON PHASE 4 #81877,Self park location,Self park location,Self park location,GARAGE,Permit only,Permit only,Permit only,Permit only,,Standard Parking Plus,(206) 623-2727 EXT 225,,,,N,Standard,,
-122.338826104682,47.6241840220257,13388,2000011,,MERCER & WESTLAKE #81386,, ,,94,,,,,,,,,,,,,,,,N,,,
-122.333076830993,47.6023822613035,13389,2000029,,,,,"114 JAMES ST, SEATTLE, WA   98104",435,Butler Garage,6:30am - 10:00pm,10:00am - 2:00am,Closed,GARAGE,4,11.5,,25,11,,,,,,N,BUTLER GARAGE,12,G17
-122.328677423139,47.6145020719438,13390,2000024,,OLIVETTI BUILDING 41181,, ,,30,OLIVETTI #41181,Self park location,Self park location,Self park location,GARAGE,7,10,10,10,,Standard Parking Plus,(206) 381-8552,,,,N,Standard,,
-122.339397539402,47.6228719389362,13391,2000012,,9TH & REPUBLICAN 81074,, ,,104,9th & Republican #81074,Self park location,Self park location,Self park location,SURFACE LOT,4.9,14.65,14.65,14.65,,Standard Parking Plus,(206) 381-8552,,,,N,Standard,,
-122.336858865572,47.6223094646525,13392,2000013,,AMAZON PHASE 1A - 81865,, ,,409,AMAZON PHASE 1A #81865,Self park location,Self park location,Self park location,GARAGE,Permit only,Permit only,Permit only,Permit only,,Standard Parking Plus,(206) 623-3405,,,,N,Standard,,
-122.355867223845,47.6926728411755,13393,731124,,DIAMOND PARKING SERVICES LLC WX42,JONATHAN DIAMOND,2062843100           ,"8701 GREENWOOD AVE N, SEATTLE, WA 98103",33,DIAMOND PARKING SERVICES LLC WX42,,,,,,,,,,,,,,,N,,,
-122.323477285429,47.6104690338355,13394,645739,,DIAMOND PARKING  A317,JONATHAN DIAMOND,2062846303           ,"1224 MADISON ST, SEATTLE, WA 98104",12,DIAMOND PARKING  A317,,,,,,,,,,,,,,,N,,,
-122.328714299035,47.6092626055526,13395,210,,VIRGINIA MASON HOSPITAL PARKING,VIRGINIA MASON HOSPITAL,2066257326           ,"1123 9TH AVE, SEATTLE, WA 98101",310,VIRGINIA MASON HOSPITAL PARKING,,,,,,,,,,,,,,,N,,,
-122.333370213362,47.6094629231664,13396,703050,,SEATTLE HILTON,ALAN LAZOWSKI,8605227641           ,"1301 6TH AVE, SEATTLE, WA 98101-2304",520,SEATTLE HILTON,,,,,,,,,,,,,,,N,,,
-122.333447130474,47.6075977363649,13397,639443,,ACE PARKING  3280 OLYMPIC GARAGE,KEITH JONES,2066524533           ,"415 SENECA ST, SEATTLE, WA 98101",624,ACE PARKING  3280 OLYMPIC GARAGE,,,,,,,,,,,,,,,N,,,
-122.333229009659,47.6071300333914,13398,719282,,ACE PARKING  3290 W SEATTLE,KEITH JONES,6192336624           ,"1112 4TH AVE, SEATTLE, WA 98101",80,ACE PARKING  3290 W SEATTLE,,,,,,,,,,,,,,,N,,,
-122.332968269267,47.6064852811102,13399,726754,,ABM PARKING 6236,,2062670446           ,"1000 4TH AVE, SEATTLE, WA 98104",150,ABM PARKING 6236,,,,,,,,,,,,,,,N,,,
-122.327050221905,47.6050165357684,13400,733347,,IMPARK 140,EDWARD DANYLUK,2063811789           ,"600 7TH AVE, SEATTLE, WA 98104",40,IMPARK 140,,,,,,,,,,,,,,,N,,,
-122.333367688927,47.6045913659403,13401,573913,,CASCADE PARKING,TSEGAI HABTEMICHAEL,2067487595           ,"823 3RD AVE, SEATTLE, WA 98104",37,CASCADE PARKING,,,,,,,,,,,,,,,N,,,
-122.33186517408,47.6044316926147,13402,583925,,UNITED PARKING 4558 4559,JONATHAN DIAMOND,2062846303           ,"723 4TH AVE, SEATTLE, WA 98104",240,UNITED PARKING 4558 4559,,,,,,,,,,,,,,,N,,,
-122.333279043118,47.6036616871519,13403,640396,,CAPLANS RAINBOW PARKING INC,DENNIS CAPLAN,2066822991           ,"214 COLUMBIA ST, SEATTLE, WA 98104-1508",80,CAPLANS RAINBOW PARKING INC,,,,,,,,,,,,,,,N,,,
-122.363784506906,47.6223474877583,13404,593930,,DIAMOND  A119,JONATHAN DIAMOND,2062843100           ,"401 ELLIOTT AVE W, SEATTLE, WA 98119",432,DIAMOND  A119,,,,,,,,,,,,,,,N,,,
-122.313483943055,47.5890953678098,13405,692204,,DIAMOND PARKING  A319,JONATHAN DIAMOND,2062843100           ,"1530 15TH AVE S, SEATTLE, WA 98144",14,DIAMOND PARKING  A319,,,,,,,,,,,,,,,N,,,
-122.313483943055,47.5890953678098,13406,692204,,DIAMOND PARKING  A319,JONATHAN DIAMOND,2062843100           ,"1530 15TH AVE S, SEATTLE, WA 98144",14,DIAMOND PARKING  A319,,,,,,,,,,,,,,,N,,,
-122.345093239923,47.6486616729835,13407,4559,,U PARK 55,KEN JR PHILLIPS,2062849797           ,"1000 N NORTHLAKE WAY, SEATTLE, WA 98103",25,U PARK 55,,,,,,,,,,,,,,,N,,,
-122.325448924649,47.5963570563987,13408,661553,,DIAMOND PARKING  A398,JONATHAN DIAMOND,2062843100           ,"611 S LANE ST, SEATTLE, WA 98104",24,DIAMOND PARKING  A398,,,,,,,,,,,,,,,N,,,
-122.351582169615,47.6496341060904,13409,4562,,U PARK 58,KEN JR PHILLIPS,2062849797           ,"501 N 34TH ST, SEATTLE, WA 98103",60,U PARK 58,,,,,,,,,,,,,,,N,,,
-122.33235347665,47.5978535199695,13410,536943,,SEAHAWKS STADIUM PARKING   NORTH LOT,PAUL ALLEN,2063817555           ,"201 S KING ST, SEATTLE, WA 98104",1165,SEAHAWKS STADIUM PARKING   NORTH LOT,,,,,,,,,,,,,,,N,,,
-122.29396061304,47.5626017165249,13411,640451,,DIAMOND PARKING  A321,JONATHAN DIAMOND,2062843100           ,"4520 M L KING JR WAY S, SEATTLE, WA 98108",20,DIAMOND PARKING  A321,,,,,,,,,,,,,,,N,,,
-122.338143269333,47.6479036182128,13412,733377,,IMPARK 151,EDWARD DANYLUK,2063811789           ,"1621 N 34TH ST, SEATTLE, WA 98103-9193",312,IMPARK 151,,,,,,,,,,,,,,,N,,,
-122.331648373283,47.6061563734205,13413,521166,,901 5TH AVENUE GARAGE 41775,BILL BEATTIE,2065215984           ,"901 5TH AVE, SEATTLE, WA 98164-2008",243,901 5TH AVENUE GARAGE 41775,,,,,,,,,,,,,,,N,,,
-122.316103572469,47.5490059777121,13414,668483,,REPUBLIC PARKING 30 30 SABEY GEORGETOWN,GARY BECK,2067834144           ,"6020 AIRPORT WAY S, SEATTLE, WA 98108",35,REPUBLIC PARKING 30 30 SABEY GEORGETOWN,,,,,,,,,,,,,,,N,,,
-122.352175471231,47.6207355268573,13415,667049,,THEATER COMMONS LOT 6,X X,2066847236           ,"290 2ND AVE N, SEATTLE, WA 98109",7,THEATER COMMONS LOT 6,,,,,,,,,,,,,,,N,,,
-122.336852530084,47.6127443512374,13416,721316,,DIAMOND PARKING  A279,JONATHAN DIAMOND,2062843100           ,"509 OLIVE WAY, SEATTLE, WA 98101",122,DIAMOND PARKING  A279,,,,,,,,,,,,,,,N,,,
-122.324864048479,47.60866021988,13417,596076,,CABRINI TOWER GARAGE 81115,BILL BEATTIE,2063818552           ,"1010 MARION ST, SEATTLE, WA 98104",386,CABRINI TOWER GARAGE 81115,,,,,,,,,,,,,,,N,,,
-122.322978418948,47.5973333984378,13418,17660,,INTL DIST MERCHANTS  32,MICHAEL OLSON,2066824233           ,"751 S WELLER ST, SEATTLE, WA 98104",13,INTL DIST MERCHANTS  32,,,,,,,,,,,,,,,N,,,
-122.322978418948,47.5973333984378,13419,17660,,INTL DIST MERCHANTS  32,MICHAEL OLSON,2066243426           ,"751 S WELLER ST, SEATTLE, WA 98104",13,INTL DIST MERCHANTS  32,,,,,,,,,,,,,,,N,,,
-122.342505165703,47.6160489670307,13420,548441,,IMPARK  14,EDWARD DANYLUK,2063811789           ,"2230 5TH AVE, SEATTLE, WA 98121",71,IMPARK  14,,,,,,,,,,,,,,,N,,,
-122.279838335154,47.5369142924931,13421,733683,,UNITED PARKING INC 4450,JONATHAN DIAMOND,2062843100           ,"4219 S OTHELLO ST, SEATTLE, WA 98118-3892",85,UNITED PARKING INC 4450,,,,,,,,,,,,,,,N,,,
-122.330986006339,47.5981207240777,13422,735788,,IPM 70 EMBASSY SUITES,JOAN SUNDBERG,2062540811           ,"255 S KING ST, SEATTLE, WA 98104-2832",69,IPM 70 EMBASSY SUITES,,,,,,,,,,,,,,,N,,,
-122.330986006339,47.5981207240777,13423,735785,,IPM 62 HAWK TOWER,JOAN SUNDBERG,2062540811           ,"255 S KING ST, SEATTLE, WA 98104-2832",225,IPM 62 HAWK TOWER,,,,,,,,,,,,,,,N,,,
-122.313730057946,47.6130843489629,13424,653674,,DIAMOND PARKING  A371,JONATHAN DIAMOND,2062843100           ,"1408 E UNION ST, SEATTLE, WA 98122-4131",25,DIAMOND PARKING  A371,,,,,,,,,,,,,,,N,,,
-122.328081416307,47.6072770243025,13425,725609,,DIAMOND PARKING SERVICES A970,JONATHAN DIAMOND,2062843100           ,"901 8TH AVE, SEATTLE, WA 98104",10,DIAMOND PARKING SERVICES A970,,,,,,,,,,,,,,,N,,,
-122.321202350044,47.6237696582729,13426,733676,,UNITED PARKING INC 4446,JONATHAN DIAMOND,2062843100           ,"523 BROADWAY E, SEATTLE, WA 98102",343,UNITED PARKING INC 4446,,,,,,,,,,,,,,,N,,,
-122.34823324196,47.6491216038043,13427,4572,,U PARK 68,KEN JR PHILLIPS,2062849797           ,"737 N 34TH ST, SEATTLE, WA 98103",31,U PARK 68,,,,,,,,,,,,,,,N,,,
-122.333904009883,47.5761937379125,13428,655277,,DIAMOND PARKING  A071,JONATHAN DIAMOND,2062813100           ,"2944 1ST AVE S, SEATTLE, WA 98134",24,DIAMOND PARKING  A071,,,,,,,,,,,,,,,N,,,
-122.333855904368,47.5763893681386,13429,735207,,DIAMOND PARKING SERVICES A684,JONATHAN DIAMOND,2062843100           ,"2942 1ST AVE S, SEATTLE, WA 98134",18,DIAMOND PARKING SERVICES A684,,,,,,,,,,,,,,,N,,,
-122.314405370211,47.6146121356837,13430,681148,,UNITED PARKING  4597,JONATHAN DIAMOND,2062843100           ,"1515 14TH AVE, SEATTLE, WA 98122",76,UNITED PARKING  4597,,,,,,,,,,,,,,,N,,,
-122.30874940766,47.5993823734978,13431,633197,,UNITED PARKING  4545,JONATHAN DIAMOND,2062846303           ,"1800 S JACKSON ST, SEATTLE, WA 98144-2176",51,UNITED PARKING  4545,,,,,,,,,,,,,,,N,,,
-122.346406062705,47.6119302783007,13432,639409,, 30 130 BLANCHARD LOT,GARY BECK,2067834144           ,"50 BLANCHARD ST, SEATTLE, WA 98101",77, 30 130 BLANCHARD LOT,,,,,,,,,,,,,,,N,,,
-122.344678840508,47.6127583202101,13433,594278,,KEY PARK NORTHWEST  86,GERALD FISH,2064438400           ,"105 BLANCHARD ST, SEATTLE, WA 98121",12,KEY PARK NORTHWEST  86,,,,,,,,,,,,,,,N,,,
-122.313975386429,47.6589915226978,13434,52869,,U DISTRICT PARKING LOT 3,,2065277006           ,"4220 BROOKLYN AVE NE, SEATTLE, WA 98105",76,U DISTRICT PARKING LOT 3,,,,,,,,,,,,,,,N,,,
-122.352786823765,47.6179207866279,13435,593896,,DIAMOND PARKING A021,JONATHAN DIAMOND,2062843100           ,"2929 2ND AVE, SEATTLE, WA 98121",28,DIAMOND PARKING A021,,,,,,,,,,,,,,,N,,,
-122.348349969079,47.6129721440367,13436,4606,,U PARK 102,KEN JR PHILLIPS,2319349797           ,"2317 WESTERN AVE, SEATTLE, WA 98121",28,U PARK 102,,,,,,,,,,,,,,,N,,,
-122.338136880208,47.6213110880799,13437,611425,,WESTLAKE & TERRY GARAGE 81394,BILL BEATTIE,2066247040           ,"320 WESTLAKE AVE N, SEATTLE, WA 98109-5232",452,WESTLAKE & TERRY GARAGE 81394,,,,,,,,,,,,,,,N,,,
-122.341998425045,47.6241902612846,13438,642579,,SEATTLE HUB 41853 CHECKING ONLY,BILL BEATTIE,2066247040           ,"530 DEXTER AVE N, SEATTLE, WA 98109-4710",0,SEATTLE HUB 41853 CHECKING ONLY,,,,,,,,,,,,,,,N,,,
-122.332035796898,47.5932139434826,13439,533688,,STADIUM EXHIBITION CENTER GARAGE,PAUL ALLEN,2065551212           ,"1000 OCCIDENTAL AVE S, SEATTLE, WA 98104",2050,STADIUM EXHIBITION CENTER GARAGE,,,,,,,,,,,,,,,N,,,
-122.341349125125,47.6235137436925,13440,733290,,IMPARK 123,EDWARD DANYLUK,2063811789           ,"750 REPUBLICAN ST, SEATTLE, WA 98109",65,IMPARK 123,,,,,,,,,,,,,,,N,,,
-122.325400690971,47.5998442293928,13441,731464,,DIAMOND PARKING SERVICES A676,JONATHAN DIAMOND,2062843100           ,"649 S MAIN ST, SEATTLE, WA 98104",45,DIAMOND PARKING SERVICES A676,,,,,,,,,,,,,,,N,,,
-122.333725948437,47.5867979212415,13442,637115,,DIAMOND PARKING  A994,JONATHAN DIAMOND,2062843100           ,"1746 1ST AVE S, SEATTLE, WA 98134",48,DIAMOND PARKING  A994,,,,,,,,,,,,,,,N,,,
-122.360720888672,47.6237143271743,13443,635156,,DIAMOND PARKING  A043,JONATHAN DIAMOND,2066846303           ,"523 3RD AVE W, SEATTLE, WA 98119",60,DIAMOND PARKING  A043,,,,,,,,,,,,,,,N,,,
-122.328574381666,47.5994093451943,13444,738297,,A691,JONATHAN DIAMOND,2062843100           ,"400 S JACKSON, SEATTLE, WA 98104",30,A691,,,,,,,,,,,,,,,N,,,
-122.31571559857,47.6155417132318,13445,676954,,DIAMOND PARKING  A440,JONATHAN DIAMOND,2062843100           ,"1601 13TH AVE, SEATTLE, WA 98122",14,DIAMOND PARKING  A440,,,,,,,,,,,,,,,N,,,
-122.335534347944,47.6210675079736,13446,713230,,TROYBLOCK 82616,BILL BEATTIE,2063818552           ,"300 BOREN AVE N, SEATTLE, WA 98109-5305",1109,TROYBLOCK 82616,,,,,,,,,,,,,,,N,,,
-122.353609249651,47.6907910772433,13447,721329,,PLATINUM PARKING  BOA   116001,SUSAN HOVER,2064550508           ,"404 N 85TH ST, SEATTLE, WA 98103",36,PLATINUM PARKING  BOA   116001,,,,,,,,,,,,,,,N,,,
-122.354987649067,47.6907706025161,13448,637246,,DIAMOND PARKING  WU65,JONATHAN DIAMOND,2062843100           ,"8500 GREENWOOD AVE N, SEATTLE, WA 98103",43,DIAMOND PARKING  WU65,,,,,,,,,,,,,,,N,,,
-122.354878806558,47.6922617424538,13449,76140,,REPUBLIC PARKING 30 34 NORTH STAR DINER,GARY BECK,2067834144           ,"8580 GREENWOOD AVE N, SEATTLE, WA 98103",189,REPUBLIC PARKING 30 34 NORTH STAR DINER,,,,,,,,,,,,,,,N,,,
-122.356447529196,47.6904642297993,13450,725048,,DIAMOND PARKING WX21,JONATHAN DIAMOND,2062843100           ,"201 N 85TH ST, SEATTLE, WA 98103",12,DIAMOND PARKING WX21,,,,,,,,,,,,,,,N,,,
-122.354438795683,47.6903279585529,13451,732184,,DIAMOND PARKING SERVICES WX43,JONATHAN DIAMOND,2062843100           ,"311 N 85TH ST, SEATTLE, WA 98103",17,DIAMOND PARKING SERVICES WX43,,,,,,,,,,,,,,,N,,,
-122.326989289925,47.6783131223799,13452,593951,,DIAMOND  WU82,JONATHAN DIAMOND,2062843100           ,"6860 E GREEN LAKE WAY N, SEATTLE, WA 98115",18,DIAMOND  WU82,,,,,,,,,,,,,,,N,,,
-122.324317677706,47.6800886077095,13453,680533,,REPUBLIC PARKING 30 070 GREEN LAKE VILLAGE,GARY BECK,2067834144           ,"7104 WOODLAWN AVE NE, SEATTLE, WA 98115",216,REPUBLIC PARKING 30 070 GREEN LAKE VILLAGE,,,,,,,,,,,,,,,N,,,
-122.318279056881,47.6827764143209,13454,625124,,DIAMOND PARKING  WX03,JONATHAN DIAMOND,2062843100           ,"7420 9TH AVE NE, SEATTLE, WA 98115",26,DIAMOND PARKING  WX03,,,,,,,,,,,,,,,N,,,
-122.316752367687,47.6821684552996,13455,690566,,DIAMOND PARKING  WU43,JONATHAN DIAMOND,2062843100           ,"7300 ROOSEVELT AVE NE, SEATTLE, WA 98115",125,DIAMOND PARKING  WU43,,,,,,,,,,,,,,,N,,,
-122.353688077328,47.6685322268513,13456,556117,,WOODLAND PARK ZOO LOT  3,WOODLAND PARK ZOO SOCIETY,2062332503           ,"5500 PHINNEY AVE N, SEATTLE, WA 98103",61,WOODLAND PARK ZOO LOT  3,,,,,,,,,,,,,,,N,,,
-122.353688077328,47.6685322268513,13457,705817,,WOODLAND PARK ZOO,JOAN SUNDBERG,2062540811           ,"5500 PHINNEY AVE N, SEATTLE, WA 98103-5865",0,WOODLAND PARK ZOO,,,,,,,,,,,,,,,N,,,
-122.312656895988,47.6632127401103,13458,52858,,UNIVERSITY DISTRICT PARKING ASSOCS INC,,2065277006           ,"4710 UNIVERSITY WAY NE # 110, SEATTLE, WA 98105",0,UNIVERSITY DISTRICT PARKING ASSOCS INC,,,,,,,,,,,,,,,N,,,
-122.317984194306,47.662721247934,13459,593925,,DIAMOND   WU10,JONATHAN DIAMOND,2062843100           ,"4535 ROOSEVELT WAY NE, SEATTLE, WA 98105",145,DIAMOND   WU10,,,,,,,,,,,,,,,N,,,
-122.318144762992,47.662550681068,13460,593924,,DIAMOND WU09,JONATHAN DIAMOND,2062843100           ,"4550 9TH AVE NE, SEATTLE, WA 98105",31,DIAMOND WU09,,,,,,,,,,,,,,,N,,,
-122.320356362812,47.66157820685,13461,625131,,DIAMOND PARKING  WU19,JONATHAN DIAMOND,2062843100           ,"700 NE 45TH ST, SEATTLE, WA 98105",22,DIAMOND PARKING  WU19,,,,,,,,,,,,,,,N,,,
-122.314571929123,47.6615055191213,13462,742437,,LAZ PARKING NORTHWEST LLC,ALAN LAZOWSKI,8605227641           ,"4507 BROOKLYN AVE NE, SEATTLE, WA 98105",80,LAZ PARKING NORTHWEST LLC,,,,,,,,,,,,,,,N,,,
-122.314538820602,47.6622744266239,13463,52871,,U DISTRICT PARKING LOT 2,,2065277006           ,"4519 BROOKLYN AVE NE, SEATTLE, WA 98105",162,U DISTRICT PARKING LOT 2,,,,,,,,,,,,,,,N,,,
-122.31624036976,47.6618292833651,13464,595353,,DIAMOND  WX11,JONATHAN DIAMOND,2062843100           ,"4510 11TH AVE NE, SEATTLE, WA 98105",73,DIAMOND  WX11,,,,,,,,,,,,,,,N,,,
-122.318735137755,47.6617519113554,13465,625126,,DIAMOND PARKING  WU06,JONATHAN DIAMOND,2062843100           ,"4515 9TH AVE NE, SEATTLE, WA 98105",42,DIAMOND PARKING  WU06,,,,,,,,,,,,,,,N,,,
-122.31624674614,47.6615825749169,13466,690565,,DIAMOND PARKING  WU05,JONATHAN DIAMOND,2062843100           ,"1100 NE 45TH ST, SEATTLE, WA 98115",78,DIAMOND PARKING  WU05,,,,,,,,,,,,,,,N,,,
-122.311675807567,47.6639815036261,13467,737919,,REPUBLIC 30 32 UNIIVERSITY CHRISTIAN CHURCH,GARY BECK,2067834144           ,"4730 15TH AVE NE, SEATTLE, WA 98105",68,REPUBLIC 30 32 UNIIVERSITY CHRISTIAN CHURCH,,,,,,,,,,,,,,,N,,,
-122.30123023941,47.6635531342847,13468,672516,,DIAMOND PARKING  WU75,JONATHAN DIAMOND,2062843100           ,"4715 25TH AVE NE, SEATTLE, WA 98105",39,DIAMOND PARKING  WU75,,,,,,,,,,,,,,,N,,,
-122.311672047862,47.6620756149002,13469,52865,,U DISTRICT PARKING LOT 9,,2065277006           ,"4526 15TH AVE NE, SEATTLE, WA 98105",70,U DISTRICT PARKING LOT 9,,,,,,,,,,,,,,,N,,,
-122.310434924677,47.6626135406069,13470,52868,,UCC,,2065277006           ,"4550 16TH AVE NE, SEATTLE, WA 98105",39,UCC,,,,,,,,,,,,,,,N,,,
-122.386276177844,47.6577886983242,13471,672520,,ELMORE ELECTRIC,JOSEPH WILLIAMS,2062130111           ,"2300 W ELMORE ST, SEATTLE, WA 98199-1245",0,ELMORE ELECTRIC,,,,,,,,,,,,,,,N,,,
-122.386276177844,47.6577886983242,13472,672520,,ELMORE ELECTRIC,JOSEPH WILLIAMS,2065282162           ,"2300 W ELMORE ST, SEATTLE, WA 98199-1245",0,ELMORE ELECTRIC,,,,,,,,,,,,,,,N,,,
-122.350297622716,47.6599497191329,13473,690564,,DIAMOND PARKING  WX04,JONATHAN DIAMOND,2062843100           ,"4333 FREMONT AVE N, SEATTLE, WA 98103",13,DIAMOND PARKING  WX04,,,,,,,,,,,,,,,N,,,
-122.334041986375,47.6611810886266,13474,625127,,DIAMOND PARKING  WU15,JONATHAN DIAMOND,2062843100           ,"1919 N 45TH ST, SEATTLE, WA 98103",33,DIAMOND PARKING  WU15,,,,,,,,,,,,,,,N,,,
-122.316928743319,47.6599827391277,13475,738916,,DIAMOND PARKING SERVICES WX33,JONATHAN DIAMOND,2062843100           ,"4301 11TH AVE NE, SEATTLE, WA 98105",12,DIAMOND PARKING SERVICES WX33,,,,,,,,,,,,,,,N,,,
-122.312410851306,47.6592579168795,13476,651564,,UNIVERSITY BOOK STORE PARKING,TODD MALAN,2066343400           ,"4315 15TH AVE NE, SEATTLE, WA 98105",95,UNIVERSITY BOOK STORE PARKING,,,,,,,,,,,,,,,N,,,
-122.313995253501,47.6593792695424,13477,52860,,U DISTRICT PARKING LOT 3B MANOR,,2065277006           ,"4236 BROOKLYN AVE NE, SEATTLE, WA 98105",22,U DISTRICT PARKING LOT 3B MANOR,,,,,,,,,,,,,,,N,,,
-122.319500867786,47.658829557999,13478,686182,,DIAMOND PARKING  WX01,JONATHAN DIAMOND,2062843100           ,"4244 8TH AVE NE, SEATTLE, WA 98115",9,DIAMOND PARKING  WX01,,,,,,,,,,,,,,,N,,,
-122.317016861108,47.657693916731,13479,637242,,DIAMOND PARKING  WU51,JONATHAN DIAMOND,2062843100           ,"4131 11TH AVE NE, SEATTLE, WA 98105",18,DIAMOND PARKING  WU51,,,,,,,,,,,,,,,N,,,
-122.312909905928,47.6569799650455,13480,596093,,DIAMOND PARKING  WU13,JONATHAN DIAMOND,2062843100           ,"4100 UNIVERSITY WAY NE, SEATTLE, WA 98105",15,DIAMOND PARKING  WU13,,,,,,,,,,,,,,,N,,,
-122.31628967087,47.6597028927816,13481,635362,,DIAMOND PARKING  WU46,JONATHAN DIAMOND,2062843100           ,"4244 11TH AVE NE, SEATTLE, WA 98105",17,DIAMOND PARKING  WU46,,,,,,,,,,,,,,,N,,,
-122.382215546117,47.6482669693988,13482,593933,,DIAMOND  A617,JONATHAN DIAMOND,2062843100           ,"2003 W DRAVUS ST, SEATTLE, WA 98199",78,DIAMOND  A617,,,,,,,,,,,,,,,N,,,
-122.358811970041,47.6488805844578,13483,713345,,DIAMOND PARKING A646,JONATHAN DIAMOND,2062843100           ,"26 W DRAVUS ST, SEATTLE, WA 98119",26,DIAMOND PARKING A646,,,,,,,,,,,,,,,N,,,
-122.3504272034,47.6518392321486,13484,733393,,IMPARK 162,EDWARD DANYLUK,2063811789           ,"3601 FREMONT AVE N, SEATTLE, WA 98103",54,IMPARK 162,,,,,,,,,,,,,,,N,,,
-122.348704345043,47.6506661578338,13485,4540,,U PARK 35,KEN JR PHILLIPS,2062231313           ,"720 N 35TH ST, SEATTLE, WA 98103",25,U PARK 35,,,,,,,,,,,,,,,N,,,
-122.345518482941,47.6491839390525,13486,596094,,DIAMOND PARKING  WU18,JONATHAN DIAMOND,2062843100           ,"936 N 34TH ST, SEATTLE, WA 98103",47,DIAMOND PARKING  WU18,,,,,,,,,,,,,,,N,,,
-122.354893173155,47.6517836734359,13487,4579,,U PARK 75,KEN JR PHILLIPS,2062849797           ,"166 N 35TH ST, SEATTLE, WA 98103",38,U PARK 75,,,,,,,,,,,,,,,N,,,
-122.372827432641,47.6631753731859,13488,728487,,DIAMOND PARKING SERVICES A672,JONATHAN DIAMOND,2062843100           ,"1135 NW LEARY WAY, SEATTLE, WA 98107",30,DIAMOND PARKING SERVICES A672,,,,,,,,,,,,,,,N,,,
-122.351605399023,47.6500820458799,13489,4575,,U PARK 71,KEN JR PHILLIPS,2062231313           ,"470 N 34TH ST, SEATTLE, WA 98103",38,U PARK 71,,,,,,,,,,,,,,,N,,,
-122.346817416506,47.6494246504893,13490,4522,,U PARK 17,KEN JR PHILLIPS,2062849797           ,"900 N 34TH ST, SEATTLE, WA 98103",27,U PARK 17,,,,,,,,,,,,,,,N,,,
-122.341664206053,47.6518584702621,13491,713284,,DIAMOND PARKING WX13,JONATHAN DIAMOND,2062843100           ,"3645 INTERLAKE AVE N, SEATTLE, WA 98103",12,DIAMOND PARKING WX13,,,,,,,,,,,,,,,N,,,
-122.34318223387,47.6514088010387,13492,719290,,DIAMOND PARKING  WX18,JONATHAN DIAMOND,2062843100           ,"3627 STONE WAY N, SEATTLE, WA 98103",25,DIAMOND PARKING  WX18,,,,,,,,,,,,,,,N,,,
-122.342540785359,47.6486758768549,13493,684174,,REPUBLIC PARKING 81 STONE 34,GARY BECK,2067834144           ,"3400 STONE WAY N, SEATTLE, WA 98103",218,REPUBLIC PARKING 81 STONE 34,,,,,,,,,,,,,,,N,,,
-122.323677377162,47.6496466472508,13494,713208,,DIAMOND PARKING  A637,JONATHAN DIAMOND,2062843100           ,"3138 FAIRVIEW AVE E, SEATTLE, WA 98102",31,DIAMOND PARKING  A637,,,,,,,,,,,,,,,N,,,
-122.313731087911,47.6530787811791,13495,677103,,UW SHUTTLE 82005 NO PS,BILL BEATTIE,2063818552           ,"3745 15TH AVE NE, SEATTLE, WA 98105-6710",0,UW SHUTTLE 82005 NO PS,,,,,,,,,,,,,,,N,,,
-122.315595961851,47.6525191267604,13496,76122,,REPUBLIC PARKING  202,GARY BECK,2067834144           ,"1200 NE BOAT ST, SEATTLE, WA 98115",86,REPUBLIC PARKING  202,,,,,,,,,,,,,,,N,,,
-122.316959320595,47.6524564594981,13497,585825,,REPUBLIC PARKING  201,GARY BECK,2067834144           ,"1101 NE BOAT ST, SEATTLE, WA 98105",28,REPUBLIC PARKING  201,,,,,,,,,,,,,,,N,,,
-122.322038867693,47.6516576339812,13498,717278,,REPUBLIC PARKING  146,GARY BECK,2067834144           ,"3275 FUHRMAN AVE E, SEATTLE, WA 98102",173,REPUBLIC PARKING  146,,,,,,,,,,,,,,,N,,,
-122.309667028763,47.6601586069837,13499,690567,,DIAMOND PARKING  WU45,JONATHAN DIAMOND,2062843100           ,"1700 NE 45TH ST, SEATTLE, WA 98115",12,DIAMOND PARKING  WU45,,,,,,,,,,,,,,,N,,,
-122.312397359946,47.6586019780108,13500,76160,,REPUBLIC PARKING  88,GARY BECK,2067834144           ,"1414 NE 42ND ST, SEATTLE, WA 98105",125,REPUBLIC PARKING  88,,,,,,,,,,,,,,,N,,,
-122.322357822023,47.6118056656633,13501,4598,,U PARK 94,KEN JR PHILLIPS,2066245353           ,"1110 BOYLSTON AVE, SEATTLE, WA 98101",98,U PARK 94,,,,,,,,,,,,,,,N,,,
-122.342586815899,47.6290550148831,13502,735380,,DIAMOND PARKING 0628,BOB TURLEY,2064367204           ,"1101 DEXTER AVE N, SEATTLE, WA 98109",406,DIAMOND PARKING 0628,,,,,,,,,,,,,,,N,,,
-122.346242768832,47.6170636949961,13503,733311,, IMPARK 139,EDWARD DANYLUK,2063811789           ,"2514 4TH AVE, SEATTLE, WA 98121",130, IMPARK 139,,,,,,,,,,,,,,,N,,,
-122.352249122337,47.6712265007101,13504,556118,,WOODLAND PARK ZOO LOT  4,WOODLAND PARK ZOO SOCIETY,2062332503           ,"501 N 59TH ST, SEATTLE, WA 98103",195,WOODLAND PARK ZOO LOT  4,,,,,,,,,,,,,,,N,,,
-122.324866605676,47.5996415236189,13505,512914,,INTER*IM,FRANCISCO IRIGON,2066241802           ,"310 MAYNARD AVE S, SEATTLE, WA 98104",0,INTER*IM,,,,,,,,,,,,,,,N,,,
-122.324866605676,47.5996415236189,13506,72560,,INTERIM COMMUNITY DEVELOPMENT ASSOCIATION,,2066241802           ,"310 MAYNARD AVE S, SEATTLE, WA 98104",0,INTERIM COMMUNITY DEVELOPMENT ASSOCIATION,,,,,,,,,,,,,,,N,,,
-122.328008215569,47.6076626860819,13507,646190,,IMPARK  87,EDWARD DANYLUK,2066848484           ,"910 8TH AVE, SEATTLE, WA 98104",210,IMPARK  87,,,,,,,,,,,,,,,N,,,
-122.338136880208,47.6213110880799,13508,596062,,TRICK AND MURRAY LOT 81095,BILL BEATTIE,2063818552           ,"300 WESTLAKE AVE N, SEATTLE, WA 98109-5218",26,TRICK AND MURRAY LOT 81095,,,,,,,,,,,,,,,N,,,
-122.339683396708,47.6337601809664,13509,655406,,IMPARK  102   LAKE UNION BLDG GARAGE,EDWARD DANYLUK,2063811789           ,"1700 WESTLAKE AVE N, SEATTLE, WA 98109",197,IMPARK  102   LAKE UNION BLDG GARAGE,,,,,,,,,,,,,,,N,,,
-122.342682384442,47.6330309756178,13510,740686,,DIAMOND PARKING LOT A700,JONATHAN DIAMOND,2062843100           ,"1515 DEXTER AVE N, SEATTLE, WA 98109-3017",40,DIAMOND PARKING LOT A700,,,,,,,,,,,,,,,N,,,
-122.34171306832,47.6326360447801,13511,625376,,IMPARK  79,EDWARD DANYLUK,2063811789           ,"1505 WESTLAKE AVE N, SEATTLE, WA 98109",445,IMPARK  79,,,,,,,,,,,,,,,N,,,
-122.325071843667,47.6329967413585,13512,717152,,DIAMOND PARKING  A650,JONATHAN DIAMOND,2062843100           ,"1520 EASTLAKE AVE E, SEATTLE, WA 98102",45,DIAMOND PARKING  A650,,,,,,,,,,,,,,,N,,,
-122.368681969141,47.6271706007345,13513,593949,,DIAMOND   A631,JONATHAN DIAMOND,2062843100           ,"904 ELLIOTT AVE W, SEATTLE, WA 98119",86,DIAMOND   A631,,,,,,,,,,,,,,,N,,,
-122.367468679699,47.6262461680478,13514,595167,,DIAMOND PARKING  A370,JONATHAN DIAMOND,2062843100           ,"660 ELLIOTT AVE W, SEATTLE, WA 98119",37,DIAMOND PARKING  A370,,,,,,,,,,,,,,,N,,,
-122.358434336561,47.6259071919595,13515,4584,,U PARK 80,KEN JR PHILLIPS,2062849797           ,"100 W ROY ST, SEATTLE, WA 98109",50,U PARK 80,,,,,,,,,,,,,,,N,,,
-122.357830616541,47.6253060011783,13516,639316,,DIAMOND PARKING  A345,JONATHAN DIAMOND,2062843100           ,"622 1ST AVE W, SEATTLE, WA 98119",150,DIAMOND PARKING  A345,,,,,,,,,,,,,,,N,,,
-122.347047703925,47.6264936249173,13517,595337,,DIAMOND PARKING  A499,JONATHAN DIAMOND,2062843100           ,"800 5TH AVE N, SEATTLE, WA 98109",131,DIAMOND PARKING  A499,,,,,,,,,,,,,,,N,,,
-122.348651994298,47.6256021722064,13518,4612,,U PARK 108,KEN JR PHILLIPS,2066245353           ,"400 ROY ST, SEATTLE, WA 98109",27,U PARK 108,,,,,,,,,,,,,,,N,,,
-122.348503969993,47.6258879244099,13519,4533,,U PARK 28,KEN JR PHILLIPS,2062849797           ,"710 4TH AVE N, SEATTLE, WA 98109",47,U PARK 28,,,,,,,,,,,,,,,N,,,
-122.342846831794,47.6310129606711,13520,744211,,DIAMOND PARKING #A705,JONATHAN DIAMOND,2062843100           ,"1319 DEXTER AVE N, SEATTLE, WA 98109",30,DIAMOND PARKING #A705,,,,,,,,,,,,,,,N,,,
-122.339595018651,47.6300011288808,13521,618335,,REPUBLIC PARKING 30 556 AGC BUILDING,GARY BECK,2067834144           ,"1200 WESTLAKE AVE N, SEATTLE, WA 98109",339,REPUBLIC PARKING 30 556 AGC BUILDING,,,,,,,,,,,,,,,N,,,
-122.34308561212,47.6295056424963,13522,738299,,A692,JONATHAN DIAMOND,2062843100           ,"1114 AURORA AVE N, SEATTLE, WA 98109",25,A692,,,,,,,,,,,,,,,N,,,
-122.342123337705,47.6281705933308,13523,614869,,IMPARK  57,EDWARD DANYLUK,2063811789           ,"1000 DEXTER AVE N, SEATTLE, WA 98109",576,IMPARK  57,,,,,,,,,,,,,,,N,,,
-122.340448917875,47.6278150358993,13524,725091,,DIAMOND PARKING LOT A663,JONATHAN DIAMOND,2062843100           ,"925 WESTLAKE AVE N, SEATTLE, WA 98109",40,DIAMOND PARKING LOT A663,,,,,,,,,,,,,,,N,,,
-122.342638091585,47.6273601858542,13525,739720,,DIAMOND PARKING A699,JONATHAN DIAMOND,2062843100           ,"905 DEXTER AVE N, SEATTLE, WA 98109",33,DIAMOND PARKING A699,,,,,,,,,,,,,,,N,,,
-122.334994306612,47.6267324420592,13526,731953,,DIAMOND PARKING INC 0602,BOB TURLEY,2062843100           ,"809 FAIRVIEW AVE N, SEATTLE, WA 98109",174,DIAMOND PARKING INC 0602,,,,,,,,,,,,,,,N,,,
-122.343219938784,47.6260904887869,13527,727114,,DIAMOND PARKING SERVICES A665,JONATHAN DIAMOND,2062843100           ,"712 AURORA AVE N, SEATTLE, WA 98109",19,DIAMOND PARKING SERVICES A665,,,,,,,,,,,,,,,N,,,
-122.341403346912,47.629082784574,13528,735389,,DIAMOND PARKING 0228,BOB TURLEY,2064367204           ,"1101 WESTLAKE AVE N, SEATTLE, WA 98109",103,DIAMOND PARKING 0228,,,,,,,,,,,,,,,N,,,
-122.340131719052,47.6255719819844,13529,693812,,DIAMOND PARKING  A484,JONATHAN DIAMOND,2062843100           ,"701 9TH AVE N, SEATTLE, WA 98109",41,DIAMOND PARKING  A484,,,,,,,,,,,,,,,N,,,
-122.344561750984,47.6251904441329,13530,625125,,DIAMOND PARKING  A289,JONATHAN DIAMOND,2062843100           ,"601 ROY ST, SEATTLE, WA 98109",52,DIAMOND PARKING  A289,,,,,,,,,,,,,,,N,,,
-122.32534641388,47.6320680631803,13531,76117,,REPUBLIC PARKING  138,GARY BECK,2067834144           ,"219 E GALER ST, SEATTLE, WA 98102",134,REPUBLIC PARKING  138,,,,,,,,,,,,,,,N,,,
-122.331728638522,47.629019508238,13532,595336,,DIAMOND  A874,JONATHAN DIAMOND,2062843100           ,"1001 FAIRVIEW AVE N, SEATTLE, WA 98109",88,DIAMOND  A874,,,,,,,,,,,,,,,N,,,
-122.333838169719,47.6277421338999,13533,731906,,DIAMOND PARKING INC 0601,BOB TURLEY,2062643100           ,"901 FAIRVIEW AVE N, SEATTLE, WA 98109",175,DIAMOND PARKING INC 0601,,,,,,,,,,,,,,,N,,,
-122.322037886695,47.6271531416019,13534,573094,,DIAMOND PARKING  A834,JONATHAN DIAMOND,2062846303           ,"800 E ALOHA ST, SEATTLE, WA 98102",40,DIAMOND PARKING  A834,,,,,,,,,,,,,,,N,,,
-122.300351302225,47.6671365083717,13535,727117,,DIAMOND PARKING SERVICES WX25,JONATHAN DIAMOND,2062843100           ,"5116 25TH AVE NE, SEATTLE, WA 98105",17,DIAMOND PARKING SERVICES WX25,,,,,,,,,,,,,,,N,,,
-122.356191475734,47.6250635414668,13536,593920,,DIAMOND  A228,JONATHAN DIAMOND,2062843100           ,"10 MERCER ST, SEATTLE, WA 98109",7,DIAMOND  A228,,,,,,,,,,,,,,,N,,,
-122.35965305121,47.624974417858,13537,76116,,REPUBLIC PARKING 133 QUEEN ANNE SQUARE,GARY BECK,2067834144           ,"200 W MERCER ST, SEATTLE, WA 98119",278,REPUBLIC PARKING 133 QUEEN ANNE SQUARE,,,,,,,,,,,,,,,N,,,
-122.355809145694,47.6248546993171,13538,582911,,UNITED PARKING  4513,JONATHAN DIAMOND,2062846303           ,"14 MERCER ST, SEATTLE, WA 98109",61,UNITED PARKING  4513,,,,,,,,,,,,,,,N,,,
-122.355809145694,47.6248546993171,13539,584186,,DIAMOND PARKING  A387,JONATHAN DIAMOND,2069929475           ,"20 MERCER ST, SEATTLE, WA 98109",17,DIAMOND PARKING  A387,,,,,,,,,,,,,,,N,,,
-122.358238153641,47.6247799684786,13540,695094,,BOA QUEEN ANNE,ALAN LAZOWSKI,8605227641           ,"100 W MERCER ST, SEATTLE, WA 98119-3930",38,BOA QUEEN ANNE,,,,,,,,,,,,,,,N,,,
-122.359628268674,47.62237832952,13541,635157,,DIAMOND PARKING  A046,JONATHAN DIAMOND,2062846303           ,"401 2ND AVE W, SEATTLE, WA 98119",42,DIAMOND PARKING  A046,,,,,,,,,,,,,,,N,,,
-122.356528580966,47.6222999415374,13542,4530,,U PARK 25,KEN JR PHILLIPS,2062849797           ,"10 HARRISON ST, SEATTLE, WA 98109",52,U PARK 25,,,,,,,,,,,,,,,N,,,
-122.356946824665,47.621929080465,13543,4505,,U PARK 100,KEN JR PHILLIPS,2062849797           ,"5 W HARRISON ST, SEATTLE, WA 98119",17,U PARK 100,,,,,,,,,,,,,,,N,,,
-122.357680064071,47.6201352449082,13544,4565,,U PARK 61,KEN JR PHILLIPS,2062849797           ,"200 1ST AVE W, SEATTLE, WA 98119",89,U PARK 61,,,,,,,,,,,,,,,N,,,
-122.356501487586,47.6204391702501,13545,4600,,U PARK 96,KEN JR PHILLIPS,2066245353           ,"216 QUEEN ANNE AVE N, SEATTLE, WA 98109",15,U PARK 96,,,,,,,,,,,,,,,N,,,
-122.356979979227,47.6202675881133,13546,582421,,DIAMOND PARKING  A479,JONATHAN DIAMOND,2069929475           ,"215 QUEEN ANNE AVE N, SEATTLE, WA 98109",35,DIAMOND PARKING  A479,,,,,,,,,,,,,,,N,,,
-122.358915739904,47.6192795558073,13547,635155,,DIAMOND PARKING  A038,JONATHAN DIAMOND,2066846303           ,"136 ELLIOTT AVE W, SEATTLE, WA 98119",3,DIAMOND PARKING  A038,,,,,,,,,,,,,,,N,,,
-122.359371664761,47.6189586285209,13548,613599,,REPUBLIC PARKING 554 PI BLDG,GARY BECK,2067834144           ,"101 ELLIOTT AVE W, SEATTLE, WA 98119",225,REPUBLIC PARKING 554 PI BLDG,,,,,,,,,,,,,,,N,,,
-122.358706167541,47.6183263429755,13549,572469,,DIAMOND PARKING  A002,JONATHAN DIAMOND,2062846303           ,"3161 ELLIOTT AVE AV, SEATTLE, WA 98121",131,DIAMOND PARKING  A002,,,,,,,,,,,,,,,N,,,
-122.35970224359,47.6241163676797,13550,76155,,REPUBLIC PARKING  515F,GARY BECK,2067834144           ,"525 2ND AVE W, SEATTLE, WA 98119",30,REPUBLIC PARKING  515F,,,,,,,,,,,,,,,N,,,
-122.355903924944,47.6224468432347,13551,4506,,U PARK 34,KEN JR PHILLIPS,2066340550           ,"411 1ST AVE N, SEATTLE, WA 98109",88,U PARK 34,,,,,,,,,,,,,,,N,,,
-122.355863250473,47.6219270212906,13552,694994,,DIAMOND PARKING  A486,JONATHAN DIAMOND,2062813400           ,"325 1ST AVE N, SEATTLE, WA 98109",40,DIAMOND PARKING  A486,,,,,,,,,,,,,,,N,,,
-122.385518021269,47.668245798358,13553,737192,,DIAMOND PARKING LOT WU59,JONATHAN DIAMOND,2062843100           ,"5420 BALLARD AVE NW, SEATTLE, WA 98107",6,DIAMOND PARKING LOT WU59,,,,,,,,,,,,,,,N,,,
-122.385669455775,47.6679111223107,13554,712363,,CURBSIDE PROVISIONS,JONATHAN AMATO,5403832685           ,"5425 BALLARD AVE NW # 4, SEATTLE, WA 98107-4050",0,CURBSIDE PROVISIONS,,,,,,,,,,,,,,,N,,,
-122.38102425424,47.6641129841877,13555,593941,,DIAMOND PARKING  WU52,JONATHAN DIAMOND,2062843100           ,"4763 BALLARD AVE NW, SEATTLE, WA 98107",45,DIAMOND PARKING  WU52,,,,,,,,,,,,,,,N,,,
-122.380637830639,47.6635307409646,13556,584053,,DIAMOND PARKING  WU54,JONATHAN DIAMOND,2062846303           ,"4749 BALLARD AVE NW, SEATTLE, WA 98107",24,DIAMOND PARKING  WU54,,,,,,,,,,,,,,,N,,,
-122.379555321129,47.6673650142708,13557,711433,,BALLARD GARAGE 1398 1399,MARK NORWICZ,4102676111           ,"5300 TALLMAN AVE NW, SEATTLE, WA 98107-3932",992,BALLARD GARAGE 1398 1399,,,,,,,,,,,,,,,N,,,
-122.385543889583,47.6677821328073,13558,625107,,DIAMOND PARKING  A611,JONATHAN DIAMOND,2062843100           ,"5417 BALLARD AVE NW, SEATTLE, WA 98107",28,DIAMOND PARKING  A611,,,,,,,,,,,,,,,N,,,
-122.384233159456,47.6665261698689,13559,698817,,BALLARD PARKING  2,JAMES RIGGLE,2067895010           ,"5310 SHILSHOLE AVE NW, SEATTLE, WA 98107",45,BALLARD PARKING  2,,,,,,,,,,,,,,,N,,,
-122.383602219597,47.6659894304213,13560,713346,,DIAMOND PARKING A647,JONATHAN DIAMOND,2062843100           ,"5260 SHILSHOLE AVE NW, SEATTLE, WA 98107",16,DIAMOND PARKING A647,,,,,,,,,,,,,,,N,,,
-122.375931612295,47.6674955684153,13561,665263,,DIAMOND PARKING  WU69,JONATHAN DIAMOND,2062843100           ,"5300 15TH AVE NW, SEATTLE, WA 98107",11,DIAMOND PARKING  WU69,,,,,,,,,,,,,,,N,,,
-122.349947482101,47.6232435520409,13562,637746,,REPUBLIC PARKING 30 562 MEMORIAL STADIUM,GARY BECK,2067834144           ,"401 5TH AVE N, SEATTLE, WA 98109",265,REPUBLIC PARKING 30 562 MEMORIAL STADIUM,,,,,,,,,,,,,,,N,,,
-122.346484647631,47.6218991374833,13563,593948,,DIAMOND   A230,JONATHAN DIAMOND,2062843100           ,"530 BROAD ST, SEATTLE, WA 98121",40,DIAMOND   A230,,,,,,,,,,,,,,,N,,,
-122.346484647631,47.6218991374833,13564,639858,,REPUBLIC 30 131 ADLER LOT,GARY BECK,2067834144           ,"333 TAYLOR AVE N, SEATTLE, WA 98109",21,REPUBLIC 30 131 ADLER LOT,,,,,,,,,,,,,,,N,,,
-122.355685126611,47.6215744551842,13565,589754,,DIAMOND PARKING  A 487,JONATHAN DIAMOND,2062846303           ,"315 1ST AVE N, SEATTLE, WA 98109",584,DIAMOND PARKING  A 487,,,,,,,,,,,,,,,N,,,
-122.347041940429,47.6214512404233,13566,593938,,DIAMOND  A089,JONATHAN DIAMOND,2062843100           ,"516 BROAD ST, SEATTLE, WA 98109",36,DIAMOND  A089,,,,,,,,,,,,,,,N,,,
-122.346678485459,47.6203764837892,13567,652092,,DIAMOND PARKING  A360,JONATHAN DIAMOND,2062843100           ,"223 TAYLOR AVE N, SEATTLE, WA 98109",50,DIAMOND PARKING  A360,,,,,,,,,,,,,,,N,,,
-122.345877214076,47.6203646505767,13568,646189,,IMPARK  85,EDWARD DANYLUK,2066848444           ,"200 TAYLOR AVE N, SEATTLE, WA 98109",102,IMPARK  85,,,,,,,,,,,,,,,N,,,
-122.355738047741,47.6203264027864,13569,594279,,KEY PARK NORTHWEST  7,GERALD FISH,2064438400           ,"215 1ST AVE N, SEATTLE, WA 98109",22,KEY PARK NORTHWEST  7,,,,,,,,,,,,,,,N,,,
-122.348572162879,47.6191533095516,13570,735378,,DIAMOND PARKING 0227,BOB TURLEY,2064367204           ,"140 4TH AVE N, SEATTLE, WA 98109",504,DIAMOND PARKING 0227,,,,,,,,,,,,,,,N,,,
-122.353911774596,47.618783811319,13571,634485,,IPM  26,JOAN SUNDBERG,2062540811           ,"150 DENNY WAY, SEATTLE, WA 98109",143,IPM  26,,,,,,,,,,,,,,,N,,,
-122.353910097865,47.6181368556562,13572,577626,,DIAMOND PARKING  A857,JONATHAN DIAMOND,2069929442           ,"3010 1ST AVE, SEATTLE, WA 98121",7,DIAMOND PARKING  A857,,,,,,,,,,,,,,,N,,,
-122.345238838853,47.6177862856868,13573,507523,,REPUBLIC  11,GARY BECK,2067834144           ,"500 WALL ST, SEATTLE, WA 98121",205,REPUBLIC  11,,,,,,,,,,,,,,,N,,,
-122.353842465581,47.6179571777309,13574,680535,,DIAMOND PARKING  A456,JONATHAN DIAMOND,2062843100           ,"3000 1ST AVE, SEATTLE, WA 98121",10,DIAMOND PARKING  A456,,,,,,,,,,,,,,,N,,,
-122.347201762028,47.6216789122117,13575,593919,,DIAMOND   A178,JONATHAN DIAMOND,2062843100           ,"318 5TH AVE N, SEATTLE, WA 98109",53,DIAMOND   A178,,,,,,,,,,,,,,,N,,,
-122.345389204795,47.6202437336381,13576,548445,,IMPARK  20,EDWARD DANYLUK,2063811789           ,"221 6TH AVE N, SEATTLE, WA 98109",28,IMPARK  20,,,,,,,,,,,,,,,N,,,
-122.347206717298,47.6195757732983,13577,519375,,REPUBLIC PARKING  159 & 160,GARY BECK,2067834144           ,"130 5TH AVE N, SEATTLE, WA 98109",37,REPUBLIC PARKING  159 & 160,,,,,,,,,,,,,,,N,,,
-122.346705751776,47.6188962163146,13578,705408,,DIAMOND PARKING  A621,JONATHAN DIAMOND,2062843100           ,"121 TAYLOR AVE N, SEATTLE, WA 98109",28,DIAMOND PARKING  A621,,,,,,,,,,,,,,,N,,,
-122.346705751776,47.6188962163146,13579,687295,,DIAMOND PARKING  A466,JONATHAN DIAMOND,2062843100           ,"101 TAYLOR AVE N, SEATTLE, WA 98109-5015",14,DIAMOND PARKING  A466,,,,,,,,,,,,,,,N,,,
-122.346004430499,47.6183750461771,13580,4594,,U PARK 90,KEN JR PHILLIPS,2062849797           ,"551 DENNY WAY, SEATTLE, WA 98109",33,U PARK 90,,,,,,,,,,,,,,,N,,,
-122.349782509341,47.6180555778245,13581,593937,,DIAMOND   A088,JONATHAN DIAMOND,2062843100           ,"2810 3RD AVE, SEATTLE, WA 98121",40,DIAMOND   A088,,,,,,,,,,,,,,,N,,,
-122.349782509341,47.6180555778245,13582,653862,,DIAMOND PARKING  A107,JONATHAN DIAMOND,2062843100           ,"2800 3RD AVE, SEATTLE, WA 98121",30,DIAMOND PARKING  A107,,,,,,,,,,,,,,,N,,,
-122.338830626213,47.6249749717513,13583,704191,,IMPARK  131,EDWARD DANYLUK,2063811789           ,"615 WESTLAKE AVE N, SEATTLE, WA 98109-4307",240,IMPARK  131,,,,,,,,,,,,,,,N,,,
-122.336456240543,47.6242397839062,13584,642663,,AMAZON 82172,BILL BEATTIE,2066247040           ,"551 BOREN AVE N, SEATTLE, WA 98109-5675",371,AMAZON 82172,,,,,,,,,,,,,,,N,,,
-122.342847045863,47.6238924773588,13585,602987,,523 DEXTER AV N 81092,BILL BEATTIE,2066247040           ,"525 DEXTER AVE N, SEATTLE, WA 98109-4711",41,523 DEXTER AV N 81092,,,,,,,,,,,,,,,N,,,
-122.334570630886,47.6233355084269,13586,713229,,URBAN UNION 82596,BILL BEATTIE,2066232727           ,"501 FAIRVIEW AVE N, SEATTLE, WA 98109-5507",352,URBAN UNION 82596,,,,,,,,,,,,,,,N,,,
-122.338047018337,47.6223740819168,13587,731463,,DIAMOND PARKING SERVICES A681,JONATHAN DIAMOND,2062843100           ,"400 WESTLAKE AVE N, SEATTLE, WA 98109",50,DIAMOND PARKING SERVICES A681,,,,,,,,,,,,,,,N,,,
-122.336803046199,47.6222120192246,13588,642660,,AMAZON GARAGE 82168,BILL BEATTIE,2066247040           ,"410 TERRY AVE N, SEATTLE, WA 98109-5210",409,AMAZON GARAGE 82168,,,,,,,,,,,,,,,N,,,
-122.335584615068,47.6222059200428,13589,704683,,IMPARK  134 RADIUS APARTMENT,EDWARD DANYLUK,2063811789           ,"400 BOREN AVE N, SEATTLE, WA 98109",165,IMPARK  134 RADIUS APARTMENT,,,,,,,,,,,,,,,N,,,
-122.340710477429,47.6200981481843,13590,588180,,DIAMOND PARKING  A 872,JONATHAN DIAMOND,2062846303           ,"200 8TH AVE N, SEATTLE, WA 98109",42,DIAMOND PARKING  A 872,,,,,,,,,,,,,,,N,,,
-122.342945984076,47.6187324916444,13591,596049,,DEJAVU LOT MURATA LOT 81077,BILL BEATTIE,2063818552           ,"714 DENNY WAY, SEATTLE, WA 98109-5101",77,DEJAVU LOT MURATA LOT 81077,,,,,,,,,,,,,,,N,,,
-122.340455422834,47.6183387725067,13592,596092,,DIAMOND PARKING  A625,JONATHAN DIAMOND,2062843100           ,"2300 8TH AVE, SEATTLE, WA 98121",23,DIAMOND PARKING  A625,,,,,,,,,,,,,,,N,,,
-122.342707133697,47.6184031984952,13593,593911,,DIAMOND  PARKING  A953,JONATHAN DIAMOND,2062843100           ,"2404 7TH AVE, SEATTLE, WA 98121",26,DIAMOND  PARKING  A953,,,,,,,,,,,,,,,N,,,
-122.341323605186,47.6182245447598,13594,733395,,IMPARK 62,EDWARD DANYLUK,2063811789           ,"2301 8TH AVE, SEATTLE, WA 98121",10,IMPARK 62,,,,,,,,,,,,,,,N,,,
-122.339406666133,47.6238353051637,13595,685247,,STANDARD PARKING 82371 500 9TH AVE N,BILL BEATTIE,2063818552           ,"500 9TH AVE N, SEATTLE, WA 98109-4720",545,STANDARD PARKING 82371 500 9TH AVE N,,,,,,,,,,,,,,,N,,,
-122.341438242816,47.6226277586738,13596,611421,,REXLAND LOT 81322,BILL BEATTIE,2066247040           ,"421 8TH AVE N, SEATTLE, WA 98109-4706",52,REXLAND LOT 81322,,,,,,,,,,,,,,,N,,,
-122.336242877266,47.6218021306726,13597,656126,,AMAZON.COM PHASE 4 LOT 82173,BILL BEATTIE,2063818552           ,"345 BOREN AVE N, SEATTLE, WA 98109-5306",784,AMAZON.COM PHASE 4 LOT 82173,,,,,,,,,,,,,,,N,,,
-122.340149850943,47.6215411201253,13598,165553,,325 9TH AVE N LOT 82497,BILL BEATTIE,2066247040           ,"325 9TH AVE N, SEATTLE, WA 98109",1200,325 9TH AVE N LOT 82497,,,,,,,,,,,,,,,N,,,
-122.344597212904,47.6205563612849,13599,593008,,IMPARK  18,EDWARD DANYLUK,2063811789           ,"220 6TH AVE N, SEATTLE, WA 98109",28,IMPARK  18,,,,,,,,,,,,,,,N,,,
-122.338073366351,47.6200386804818,13600,677114,,202 WESTLAKE AVE 82220,BILL BEATTIE,2063818552           ,"202 WESTLAKE AVE N, SEATTLE, WA 98109-5264",218,202 WESTLAKE AVE 82220,,,,,,,,,,,,,,,N,,,
-122.338068922396,47.6192081547431,13601,633166,,ROLLIN ST LOT 82033,BILL BEATTIE,2066247040           ,"120 WESTLAKE AVE N, SEATTLE, WA 98109-5241",19,ROLLIN ST LOT 82033,,,,,,,,,,,,,,,N,,,
-122.338068922396,47.6192081547431,13602,656128,, ROLLIN STREET AMAZON LOT 81777,BILL BEATTIE,2063818552           ,"120 WESTLAKE AVE N, SEATTLE, WA 98109-5241",261, ROLLIN STREET AMAZON LOT 81777,,,,,,,,,,,,,,,N,,,
-122.343884465703,47.6179991570681,13603,565731,,IMPARK  34,EDWARD DANYLUK,2063811789           ,"601 WALL ST, SEATTLE, WA 98121",17,IMPARK  34,,,,,,,,,,,,,,,N,,,
-122.339083596885,47.618105135016,13604,633165,,2201 9TH AVENUE LOT 81771,BILL BEATTIE,2066247040           ,"2201 9TH AVE, SEATTLE, WA 98121-2710",327,2201 9TH AVENUE LOT 81771,,,,,,,,,,,,,,,N,,,
-122.337285099488,47.6178259199299,13605,602971,,2200 WESTLAKE GARAGE 81236,BILL BEATTIE,2066247040           ,"2200 WESTLAKE AVE, SEATTLE, WA 98121-2713",412,2200 WESTLAKE GARAGE 81236,,,,,,,,,,,,,,,N,,,
-122.300020167944,47.666527338951,13606,717118,,DIAMOND PARKING  WX16,JONATHAN DIAMOND,2062843100           ,"2510 NE BLAKELY ST, SEATTLE, WA 98105",26,DIAMOND PARKING  WX16,,,,,,,,,,,,,,,N,,,
-122.295447795054,47.6620492416684,13607,637243,,DIAMOND PARKING  WU25,JONATHAN DIAMOND,2062843100           ,"3020 NE 45TH ST, SEATTLE, WA 98105",15,DIAMOND PARKING  WU25,,,,,,,,,,,,,,,N,,,
-122.29301576679,47.6620977700968,13608,584055,,DIAMOND PARKING  WU80,JONATHAN DIAMOND,2062846303           ,"4518 UNION BAY PL NE, SEATTLE, WA 98115",34,DIAMOND PARKING  WU80,,,,,,,,,,,,,,,N,,,
-122.291246717319,47.6613883057333,13609,625172,,DIAMOND PARKING  WU83,JONATHAN DIAMOND,2062843100           ,"3216 NE 45TH ST, SEATTLE, WA 98105",50,DIAMOND PARKING  WU83,,,,,,,,,,,,,,,N,,,
-122.356651276205,47.6398074392102,13610,577229,,DIAMOND PARKING  A917,JONATHAN DIAMOND,2062846303           ,"2402 QUEEN ANNE AVE N, SEATTLE, WA 98109",95,DIAMOND PARKING  A917,,,,,,,,,,,,,,,N,,,
-122.326257294142,47.6421935589463,13611,678058,,DIAMOND PARKING  A444,JONATHAN DIAMOND,2062843100           ,"2501 EASTLAKE AVE E, SEATTLE, WA 98102",30,DIAMOND PARKING  A444,,,,,,,,,,,,,,,N,,,
-122.325531379904,47.6395994950726,13612,4528,,U PARK 23,KEN JR PHILLIPS,2062849797           ,"2238 EASTLAKE AVE E, SEATTLE, WA 98102",20,U PARK 23,,,,,,,,,,,,,,,N,,,
-122.356800620818,47.6338323482704,13613,625137,,DIAMOND PARKING  A826,JONATHAN DIAMOND,2062843100           ,"1600 QUEEN ANNE AVE N, SEATTLE, WA 98109",13,DIAMOND PARKING  A826,,,,,,,,,,,,,,,N,,,
-122.342177815627,47.636441258817,13614,715307,,DIAMOND PARKING  A648,JONATHAN DIAMOND,2062843100           ,"1920 DEXTER AVE N, SEATTLE, WA 98109",15,DIAMOND PARKING  A648,,,,,,,,,,,,,,,N,,,
-122.325063854909,47.6193972762034,13615,645755,,DIAMOND PARKING  A329,JONATHAN DIAMOND,2062846303           ,"1600 E OLIVE WAY, SEATTLE, WA 98122",21,DIAMOND PARKING  A329,,,,,,,,,,,,,,,N,,,
-122.324324382362,47.6190028472151,13616,679932,,DIAMOND PARKING  A450,JONATHAN DIAMOND,2062843100           ,"117 BELMONT AVE E, SEATTLE, WA 98102",17,DIAMOND PARKING  A450,,,,,,,,,,,,,,,N,,,
-122.325121024832,47.6188346435675,13617,690978,,DIAMOND PARKING  A472,JONATHAN DIAMOND,2062843100           ,"110 SUMMIT AVE E, SEATTLE, WA 98102",10,DIAMOND PARKING  A472,,,,,,,,,,,,,,,N,,,
-122.329942021612,47.6186899940769,13618,625103,,DIAMOND PARKING  A615,JONATHAN DIAMOND,2062843100           ,"1305 STEWART ST, SEATTLE, WA 98109",204,DIAMOND PARKING  A615,,,,,,,,,,,,,,,N,,,
-122.32949205934,47.6182377563788,13619,727115,,DIAMOND PARKING SERVICES A664,JONATHAN DIAMOND,2062843100           ,"1810 COURT PL, SEATTLE, WA 98101",6,DIAMOND PARKING SERVICES A664,,,,,,,,,,,,,,,N,,,
-122.332080254198,47.6238090232862,13620,667095,,DIAMOND PARKING  A 939,JONATHAN DIAMOND,2064367266           ,"535 PONTIUS AVE N, SEATTLE, WA 98109",33,DIAMOND PARKING  A 939,,,,,,,,,,,,,,,N,,,
-122.330852296681,47.6233648050092,13621,683879,,DIAMOND PARKING  A462,JONATHAN DIAMOND,2062843100           ,"1260 REPUBLICAN ST, SEATTLE, WA 98102",10,DIAMOND PARKING  A462,,,,,,,,,,,,,,,N,,,
-122.329415137169,47.6221507022926,13622,625123,,DIAMOND PARKING  A268,JONATHAN DIAMOND,2062843100           ,"401 EASTLAKE AVE E, SEATTLE, WA 98102",28,DIAMOND PARKING  A268,,,,,,,,,,,,,,,N,,,
-122.330070944734,47.6193281036644,13623,600950,,UNITED PARKING  4517,JONATHAN DIAMOND,2062843100           ,"110 YALE AVE N, SEATTLE, WA 98109",19,UNITED PARKING  4517,,,,,,,,,,,,,,,N,,,
-122.330184755427,47.6191815887444,13624,713285,,DIAMOND PARKING A640,JONATHAN DIAMOND,2062843100           ,"108 YALE AVE N, SEATTLE, WA 98103",18,DIAMOND PARKING A640,,,,,,,,,,,,,,,N,,,
-122.330226691504,47.6181230296314,13625,593946,,DIAMOND  A176,JONATHAN DIAMOND,2062843100           ,"1818 YALE AVE, SEATTLE, WA 98122",28,DIAMOND  A176,,,,,,,,,,,,,,,N,,,
-122.318378903781,47.6244234352759,13626,635173,,DIAMOND PARKING  A145,JONATHAN DIAMOND,2062846303           ,"1058 E MERCER ST, SEATTLE, WA 98102",57,DIAMOND PARKING  A145,,,,,,,,,,,,,,,N,,,
-122.320693256463,47.6247597550245,13627,593899,,DIAMOND PARKING A034,JONATHAN DIAMOND,2062843100           ,"614 BROADWAY E, SEATTLE, WA 98102",22,DIAMOND PARKING A034,,,,,,,,,,,,,,,N,,,
-122.322292353432,47.6236582685278,13628,738082,,4514,JONATHAN DIAMOND,2062843100           ,"515 HARVARD AVE E, SEATTLE, WA 98102",12,4514,,,,,,,,,,,,,,,N,,,
-122.320518673158,47.6218499714303,13629,737196,,DIAMOND PARKING A861,JONATHAN DIAMOND,2062843100           ,"324 BROADWAY E, SEATTLE, WA 98102",12,DIAMOND PARKING A861,,,,,,,,,,,,,,,N,,,
-122.3131525589,47.6212915447163,13630,653859,,DIAMOND PARKING  A092,JONATHAN DIAMOND,2062843100           ,"321 15TH AVE E, SEATTLE, WA 98112",37,DIAMOND PARKING  A092,,,,,,,,,,,,,,,N,,,
-122.320541375487,47.6208402344582,13631,663733,,DIAMOND PARKING  A383,JONATHAN DIAMOND,2062843100           ,"230 BROADWAY E, SEATTLE, WA 98102",72,DIAMOND PARKING  A383,,,,,,,,,,,,,,,N,,,
-122.319912883987,47.6208959121757,13632,595346,,DIAMOND PARKING  A497,JONATHAN DIAMOND,2062843100           ,"909 E THOMAS ST, SEATTLE, WA 98102",98,DIAMOND PARKING  A497,,,,,,,,,,,,,,,N,,,
-122.313158180271,47.6189813811751,13633,734661,,REPUBLIC PARKING 30 210,GARY BECK,2067834144           ,"115 15TH AVE E, SEATTLE, WA 98112",24,REPUBLIC PARKING 30 210,,,,,,,,,,,,,,,N,,,
-122.322501017305,47.6178979457591,13634,634486,,DIAMOND PARKING  A980  A,JONATHAN DIAMOND,2062843100           ,"1807 HARVARD AVE, SEATTLE, WA 98122",62,DIAMOND PARKING  A980  A,,,,,,,,,,,,,,,N,,,
-122.312530764411,47.6213314493412,13635,576757,,DIAMOND PARKING  A600,JONATHAN DIAMOND,2062846303           ,"324 15TH AVE E, SEATTLE, WA 98112",300,DIAMOND PARKING  A600,,,,,,,,,,,,,,,N,,,
-122.302915746519,47.6180292620551,13636,733376,,IMPARK 149,EDWARD DANYLUK,2063811789           ,"1819 23RD AVE, SEATTLE, WA 98122",8,IMPARK 149,,,,,,,,,,,,,,,N,,,
-122.295561316555,47.6236425322184,13637,645751,,DIAMOND PARKING  A324,JONATHAN DIAMOND,2062846303           ,"2811 E MADISON ST, SEATTLE, WA 98112",10,DIAMOND PARKING  A324,,,,,,,,,,,,,,,N,,,
-122.355662101741,47.6147229400021,13638,583927,,UNITED PARKING  4570,JONATHAN DIAMOND,2062846303           ,"2801 ALASKAN WAY, SEATTLE, WA 98121",112,UNITED PARKING  4570,,,,,,,,,,,,,,,N,,,
-122.355662101741,47.6147229400021,13639,721829,,TRIAD PIER 70 LLC,JOHN GOODMAN,2064480259           ,"2801 ALASKAN WAY # 310, SEATTLE, WA 98121-1135",0,TRIAD PIER 70 LLC,,,,,,,,,,,,,,,N,,,
-122.353851568518,47.61634486367,13640,608878,,REPUBLIC PARKING 137 OLYMPIC SCULPTURE PARK,GARY BECK,2067834144           ,"2901 WESTERN AVE, SEATTLE, WA 98121",51,REPUBLIC PARKING 137 OLYMPIC SCULPTURE PARK,,,,,,,,,,,,,,,N,,,
-122.351257698207,47.615804311579,13641,667845,,DIAMOND PARKING  A422,JONATHAN DIAMOND,2062843100           ,"2701 1ST AVE, SEATTLE, WA 98121",11,DIAMOND PARKING  A422,,,,,,,,,,,,,,,N,,,
-122.345145786546,47.6153369636545,13642,733309,,IMPARK 137,EDWARD DANYLUK,2063811789           ,"2312 3RD AVE, SEATTLE, WA 98121-1700",120,IMPARK 137,,,,,,,,,,,,,,,N,,,
-122.346237389787,47.6151275454422,13643,664859,,DIAMOND PARKING  A411,JONATHAN DIAMOND,2062843100           ,"2333 3RD AVE, SEATTLE, WA 98121",21,DIAMOND PARKING  A411,,,,,,,,,,,,,,,N,,,
-122.346301267113,47.6140760639062,13644,555353,,REPUBLIC PARKING  27,GARY BECK,2067834144           ,"2311 2ND AVE, SEATTLE, WA 98121",20,REPUBLIC PARKING  27,,,,,,,,,,,,,,,N,,,
-122.350481771549,47.6136050819609,13645,634724,,IMPARK   4984,EDWARD DANYLUK,2063811789           ,"2500 ELLIOTT AVE, SEATTLE, WA 98121",23,IMPARK   4984,,,,,,,,,,,,,,,N,,,
-122.347695313696,47.6121764509375,13646,633195,,DIAMOND PARKING  A977,JONATHAN DIAMOND,2062843100           ,"55 BELL ST, SEATTLE, WA 98121",23,DIAMOND PARKING  A977,,,,,,,,,,,,,,,N,,,
-122.349472341949,47.6113733658093,13647,605509,,REPUBLIC PARKING 29 PIER 66,GARY BECK,2067834144           ,"2225 ALASKAN WAY, SEATTLE, WA 98121",29,REPUBLIC PARKING 29 PIER 66,,,,,,,,,,,,,,,N,,,
-122.353350818555,47.6156574920885,13648,658824,,UNITED PARKING  4592,JONATHAN DIAMOND,2062843100           ,"2801 WESTERN AVE, SEATTLE, WA 98121",327,UNITED PARKING  4592,,,,,,,,,,,,,,,N,,,
-122.349886935837,47.6157360206253,13649,76123,,REPUBLIC PARKING  515B,GARY BECK,2067834144           ,"2610 1ST AVE, SEATTLE, WA 98121",56,REPUBLIC PARKING  515B,,,,,,,,,,,,,,,N,,,
-122.345311064794,47.6158165340572,13650,4601,,U PARK 97,KEN JR PHILLIPS,2066245353           ,"2335 4TH AVE, SEATTLE, WA 98121",30,U PARK 97,,,,,,,,,,,,,,,N,,,
-122.347036806014,47.6157032579643,13651,635168,,DIAMOND PARKING  A801,JONATHAN DIAMOND,2062846303           ,"2413 3RD AVE, SEATTLE, WA 98121",56,DIAMOND PARKING  A801,,,,,,,,,,,,,,,N,,,
-122.346702813697,47.6138430867818,13652,76128,,REPUBLIC PARKING  515A,GARY BECK,2067834144           ,"2312 1ST AVE, SEATTLE, WA 98121",56,REPUBLIC PARKING  515A,,,,,,,,,,,,,,,N,,,
-122.348252822397,47.6135201491187,13653,4596,,U PARK 92,KEN JR PHILLIPS,2066245353           ,"2330 WESTERN AVE, SEATTLE, WA 98121",17,U PARK 92,,,,,,,,,,,,,,,N,,,
-122.345342757653,47.6130226247587,13654,4586,,U PARK 82,KEN JR PHILLIPS,2062849797           ,"2210 1ST AVE AV, SEATTLE, WA 98121",29,U PARK 82,,,,,,,,,,,,,,,N,,,
-122.345431566254,47.6119172771466,13655,740036,,DIAMOND PARKING A698,JONATHAN DIAMOND,2062843100           ,"2134 WESTERN AVE, SEATTLE, WA 98121",48,DIAMOND PARKING A698,,,,,,,,,,,,,,,N,,,
-122.347479441561,47.6111639523578,13656,576659,,REPUBLIC  221,GARY BECK,2067834144           ,"2200 ALASKAN WAY, SEATTLE, WA 98121",37,REPUBLIC  221,,,,,,,,,,,,,,,N,,,
-122.341809738641,47.6173154883665,13657,545710,,IMPARK  8,EDWARD DANYLUK,2063811789           ,"2301 7TH AVE, SEATTLE, WA 98101",97,IMPARK  8,,,,,,,,,,,,,,,N,,,
-122.33654449888,47.6171770336038,13658,596043,,901 LENORA LOT 41119,BILL BEATTIE,2063818552           ,"2030 9TH AVE, SEATTLE, WA 98121-2743",43,901 LENORA LOT 41119,,,,,,,,,,,,,,,N,,,
-122.356359929236,47.6214389417447,13659,593947,,DIAMOND   A184,JONATHAN DIAMOND,2062843100           ,"314 QUEEN ANNE AVE N, SEATTLE, WA 98109",28,DIAMOND   A184,,,,,,,,,,,,,,,N,,,
-122.355892599132,47.6207632818922,13660,76134,,REPUBLIC PARKING  515D,GARY BECK,2067834144           ,"233 1ST AVE N, SEATTLE, WA 98109",30,REPUBLIC PARKING  515D,,,,,,,,,,,,,,,N,,,
-122.355884136207,47.6192736228152,13661,76130,,REPUBLIC PARKING  515C,GARY BECK,2067834144           ,"121 1ST AVE N, SEATTLE, WA 98109",30,REPUBLIC PARKING  515C,,,,,,,,,,,,,,,N,,,
-122.357670568239,47.6190978403353,13662,4541,,U PARK 36,KEN JR PHILLIPS,2066245353           ,"110 1ST AVE W, SEATTLE, WA 98119",36,U PARK 36,,,,,,,,,,,,,,,N,,,
-122.345932702297,47.6251588426829,13663,593932,,DIAMOND   A288,JONATHAN DIAMOND,2062843100           ,"557 ROY ST, SEATTLE, WA 98109",32,DIAMOND   A288,,,,,,,,,,,,,,,N,,,
-122.3544148467,47.6248336063207,13664,734648,,REPUBLIC PARKING 30 508,GARY BECK,2067834144           ,"100 MERCER ST, SEATTLE, WA 98109",60,REPUBLIC PARKING 30 508,,,,,,,,,,,,,,,N,,,
-122.353013411961,47.6248307855849,13665,4509,,U PARK 4,KEN JR PHILLIPS,2062849797           ,"170 MERCER ST, SEATTLE, WA 98109",24,U PARK 4,,,,,,,,,,,,,,,N,,,
-122.353826761434,47.6248738088433,13666,4531,,U PARK 26,KEN JR PHILLIPS,2062849797           ,"600 WARREN AVE N, SEATTLE, WA 98109",58,U PARK 26,,,,,,,,,,,,,,,N,,,
-122.354361553811,47.6243121409263,13667,4514,,U PARK 9,KEN JR PHILLIPS,2062849797           ,"115 MERCER ST, SEATTLE, WA 98109",23,U PARK 9,,,,,,,,,,,,,,,N,,,
-122.354551479963,47.6236140420287,13668,733682,,UNITED PARKING INC 4495,JONATHAN DIAMOND,2062843100           ,"100 REPUBLICAN ST, SEATTLE, WA 98109-4534",274,UNITED PARKING INC 4495,,,,,,,,,,,,,,,N,,,
-122.338098286614,47.613931633548,13669,543241,,ACE PARKING  0674 WESTIN PRKG GARAGE,KEITH JONES,2066289042           ,"1900 5TH AVE, SEATTLE, WA 98101",235,ACE PARKING  0674 WESTIN PRKG GARAGE,,,,,,,,,,,,,,,N,,,
-122.337124926622,47.6140187309378,13670,593012,,IMPARK  33,EDWARD DANYLUK,2063811789           ,"600 STEWART ST, SEATTLE, WA 98101",6,IMPARK  33,,,,,,,,,,,,,,,N,,,
-122.344417649616,47.6134893669856,13671,733391,,IIMPARK 160,EDWARD DANYLUK,2063811789           ,"2200 2ND AVE, SEATTLE, WA",35,IIMPARK 160,,,,,,,,,,,,,,,N,,,
-122.339947386301,47.6133693074159,13672,634756,,UNITED PARKING  4504,JONATHAN DIAMOND,2062846303           ,"2024 4TH AVE, SEATTLE, WA 98121",204,UNITED PARKING  4504,,,,,,,,,,,,,,,N,,,
-122.334302653536,47.6131642692395,13673,734481,,0221,BOB TURLEY,2062843100           ,"1600 7TH AVE, SEATTLE, WA 98101",164,0221,,,,,,,,,,,,,,,N,,,
-122.336951301527,47.6131943430319,13674,605781,,IMPARK  60,EDWARD DANYLUK,2063811789           ,"1801 6TH AVE, SEATTLE, WA 98101",34,IMPARK  60,,,,,,,,,,,,,,,N,,,
-122.342010254678,47.6122970348015,13675,76129,,REPUBLIC PARKING  176,GARY BECK,2067284457           ,"2012 2ND AVE, SEATTLE, WA 98101",45,REPUBLIC PARKING  176,,,,,,,,,,,,,,,N,,,
-122.33903353009,47.6122948634395,13676,530468,,IMPARK  1,EDWARD DANYLUK,2063811789           ,"1918 3RD AVE, SEATTLE, WA 98101",328,IMPARK  1,,,,,,,,,,,,,,,N,,,
-122.33903353009,47.6122948634395,13677,530469,,IMPARK  2,EDWARD DANYLUK,2063811789           ,"1913 4TH AVE, SEATTLE, WA 98101",178,IMPARK  2,,,,,,,,,,,,,,,N,,,
-122.334207375878,47.6118525278862,13678,680571,,ACE PARKING  3265 MERIDIAN GARAGE EAST,KEITH JONES,6192336624           ,"1501 7TH AVE, SEATTLE, WA 98101",410,ACE PARKING  3265 MERIDIAN GARAGE EAST,,,,,,,,,,,,,,,N,,,
-122.340402834425,47.6117903659103,13679,4554,,U PARK 49,KEN JR PHILLIPS,2062849797           ,"1913 3RD AVE, SEATTLE, WA 98101",288,U PARK 49,,,,,,,,,,,,,,,N,,,
-122.344014988985,47.6115586707217,13680,700433,,MARKET PLACE TOWER 30 512,GARY BECK,2067834144           ,"2025 1ST AVE, SEATTLE, WA 98121",186,MARKET PLACE TOWER 30 512,,,,,,,,,,,,,,,N,,,
-122.341389458107,47.6176778150084,13681,690523,,IMPARK  117,EDWARD DANYLUK,2063811789           ,"2300 7TH AVE, SEATTLE, WA 98121",32,IMPARK  117,,,,,,,,,,,,,,,N,,,
-122.34211530451,47.6170371292961,13682,663917,,DIAMOND PARKING  A407,JONATHAN DIAMOND,2062843100           ,"2300 6TH AVE, SEATTLE, WA 98121",28,DIAMOND PARKING  A407,,,,,,,,,,,,,,,N,,,
-122.339733355979,47.6160806323387,13683,713231,,2121 7TH AVE 82627,BILL BEATTIE,2063818552           ,"2121 7TH AVE, SEATTLE, WA 98121-5114",1147,2121 7TH AVE 82627,,,,,,,,,,,,,,,N,,,
-122.334480200152,47.615976595495,13684,584041,,DIAMOND PARKING  A187,JONATHAN DIAMOND,2062846303           ,"1900 9TH AVE, SEATTLE, WA 98101",183,DIAMOND PARKING  A187,,,,,,,,,,,,,,,N,,,
-122.335031282609,47.6156687588965,13685,743667,,ABM INDUSTRY GROUP LLC,,2062670446           ,"818 STEWART AVE, SEATTLE, WA 98101",235,ABM INDUSTRY GROUP LLC,,,,,,,,,,,,,,,N,,,
-122.340982964541,47.6151278853724,13686,548440,,IMPARK  13,EDWARD DANYLUK,2063811789           ,"2120 5TH AVE, SEATTLE, WA 98121",28,IMPARK  13,,,,,,,,,,,,,,,N,,,
-122.343760901385,47.6144912934956,13687,513281,,KEY PARK NORTHWEST  4,GERALD FISH,2064438400           ,"2216 3RD AVE, SEATTLE, WA 98121",97,KEY PARK NORTHWEST  4,,,,,,,,,,,,,,,N,,,
-122.343686940295,47.615975123791,13688,635176,,DIAMOND PARKING  A287,JONATHAN DIAMOND,2062846303           ,"2301 5TH AVE, SEATTLE, WA 98121",213,DIAMOND PARKING  A287,,,,,,,,,,,,,,,N,,,
-122.335819651758,47.6155472550747,13689,642344,,REPUBLIC 30 136,GARY BECK,2067834144           ,"1918 8TH AVE, SEATTLE, WA 98101",402,REPUBLIC 30 136,,,,,,,,,,,,,,,N,,,
-122.340473242825,47.6142304682517,13690,717151,,DIAMOND PARKING  A649,JONATHAN DIAMOND,2062843100           ,"421 LENORA ST, SEATTLE, WA 98121",22,DIAMOND PARKING  A649,,,,,,,,,,,,,,,N,,,
-122.335232028049,47.6139870783369,13691,530466,,IMPARK,EDWARD DANYLUK,2063811789           ,"1700 7TH AVE, SEATTLE, WA 98101",0,IMPARK,,,,,,,,,,,,,,,N,,,
-122.335232028049,47.6139870783369,13692,549410,,IMPARK  10,EDWARD DANYLUK,2063811789           ,"1700 7TH AVE, SEATTLE, WA 98101",591,IMPARK  10,,,,,,,,,,,,,,,N,,,
-122.335232028049,47.6139870783369,13693,32230,,CLISE INC & HAMMER CO,,2066237500           ,"1700 7TH AVE #1800, SEATTLE, WA 98101",0,CLISE INC & HAMMER CO,,,,,,,,,,,,,,,N,,,
-122.340223631108,47.6139985842911,13694,593950,,DIAMOND  A256,JONATHAN DIAMOND,2062843100           ,"2021 5TH AVE, SEATTLE, WA 98121",52,DIAMOND  A256,,,,,,,,,,,,,,,N,,,
-122.336443844357,47.6135603317537,13695,605782,,IMPARK  59 & 61,EDWARD DANYLUK,2063811789           ,"1818 6TH AVE, SEATTLE, WA 98101",138,IMPARK  59 & 61,,,,,,,,,,,,,,,N,,,
-122.340828834158,47.6132090956606,13696,4546,,U PARK 41,KEN JR PHILLIPS,2062849797           ,"2015 4TH AVE, SEATTLE, WA 98121",26,U PARK 41,,,,,,,,,,,,,,,N,,,
-122.338398944037,47.6129177216874,13697,665930,,IMPARK 106,EDWARD DANYLUK,2063811789           ,"1903 5TH AVE, SEATTLE, WA 98101",48,IMPARK 106,,,,,,,,,,,,,,,N,,,
-122.340793400175,47.6127367155909,13698,4547,,U PARK 42,KEN JR PHILLIPS,2062849797           ,"2000 3RD AVE, SEATTLE, WA 98121",26,U PARK 42,,,,,,,,,,,,,,,N,,,
-122.344366779793,47.612498497871,13699,4550,,U PARK 45,KEN JR PHILLIPS,2062849797           ,"2120 1ST AVE, SEATTLE, WA 98101",56,U PARK 45,,,,,,,,,,,,,,,N,,,
-122.342312964765,47.6117080990831,13700,733378,,IMPARK 158,EDWARD DANYLUK,2063811789           ,"2015 2ND AVE, SEATTLE, WA 98121",61,IMPARK 158,,,,,,,,,,,,,,,N,,,
-122.341857139481,47.6114526368442,13701,519374,,REPUBLIC PARKING  158,GARY BECK,2067834144           ,"1935 2ND AVE, SEATTLE, WA 98101",16,REPUBLIC PARKING  158,,,,,,,,,,,,,,,N,,,
-122.339911623319,47.6109401271485,13702,744000,,THE CHARTER,KEITH JONES,6192336624           ,"1610 2ND AVE, SEATTLE, WA 98101",0,THE CHARTER,,,,,,,,,,,,,,,N,,,
-122.341361338093,47.610699925907,13703,707394,,THOMPSON HOTEL,ALAN LAZOWSKI,8605227641           ,"110 STEWART ST, SEATTLE, WA 98101-1019",145,THOMPSON HOTEL,,,,,,,,,,,,,,,N,,,
-122.333110634834,47.6173542221085,13704,4619,,U PARK 115,KEN JR PHILLIPS,2066245353           ,"1916 BOREN AVE, SEATTLE, WA 98101",62,U PARK 115,,,,,,,,,,,,,,,N,,,
-122.331951110628,47.616979117306,13705,743251,,TILT49 REALTY LLC,,5038721028           ,"1812 BOREN AVE, SEATTLE, WA 98101-1453",0,TILT49 REALTY LLC,,,,,,,,,,,,,,,N,,,
-122.331951110628,47.616979117306,13706,732087,,1812 BOREN AVE 82727,BILL BEATTIE,206318552            ,"1812 BOREN AVE, SEATTLE, WA 98101",269,1812 BOREN AVE 82727,,,,,,,,,,,,,,,N,,,
-122.332613234478,47.6166468695009,13707,532324,,ACE PARKING  3284 HILTON GARDEN INN,KEITH JONES,2066289042           ,"1821 BOREN AVE, SEATTLE, WA 98101",100,ACE PARKING  3284 HILTON GARDEN INN,,,,,,,,,,,,,,,N,,,
-122.327581745213,47.6159849880194,13708,572484,,DIAMOND PARKING  A473,JONATHAN DIAMOND,2062846303           ,"1616 MELROSE AVE, SEATTLE, WA 98122",9,DIAMOND PARKING  A473,,,,,,,,,,,,,,,N,,,
-122.327581745213,47.6159849880194,13709,635361,,DIAMOND PARKING  A475 BOTTOM,JONATHAN DIAMOND,2062843100           ,"1620 MELROSE AVE, SEATTLE, WA 98122",19,DIAMOND PARKING  A475 BOTTOM,,,,,,,,,,,,,,,N,,,
-122.331460801654,47.6156998426449,13710,734645,,REPUBLIC PARKING 30 207,GARY BECK,2067834144           ,"1711 BOREN AVE, SEATTLE, WA 98101",141,REPUBLIC PARKING 30 207,,,,,,,,,,,,,,,N,,,
-122.333030540756,47.6151648067094,13711,682056,,STANDARD PARKING 82300 1800 NINTH PARKING GARAG,BILL BEATTIE,2066232727           ,"1800 9TH AVE, SEATTLE, WA 98101-1358",301,STANDARD PARKING 82300 1800 NINTH PARKING GARAG,,,,,,,,,,,,,,,N,,,
-122.328157405321,47.6153880556086,13712,662391,,DIAMOND PARKING  A897,JONATHAN DIAMOND,2062843100           ,"1216 PINE ST, SEATTLE, WA 98101",6,DIAMOND PARKING  A897,,,,,,,,,,,,,,,N,,,
-122.3253578301,47.6150546387918,13713,734070,,DIAMOND PARKING SERVICES A682,JONATHAN DIAMOND,2062843100           ,"501 E PINE ST, SEATTLE, WA 98122-2310",18,DIAMOND PARKING SERVICES A682,,,,,,,,,,,,,,,N,,,
-122.324178956964,47.6144487919135,13714,731954,,DIAMOND PARKING INC 0638,BOB TURLEY,2062843100           ,"1530 BELMONT AVE, SEATTLE, WA 98122",60,DIAMOND PARKING INC 0638,,,,,,,,,,,,,,,N,,,
-122.333233761029,47.6145697172928,13715,635468,,DIAMOND PARKING  A302,JONATHAN DIAMOND,2062846300           ,"800 OLIVE WAY, SEATTLE, WA 98101",7,DIAMOND PARKING  A302,,,,,,,,,,,,,,,N,,,
-122.330619982499,47.624886407583,13716,740031,,DIAMOND PARKING A697,JONATHAN DIAMOND,2062843100           ,"624 YALE AVE N, SEATTLE, WA 98109",114,DIAMOND PARKING A697,,,,,,,,,,,,,,,N,,,
-122.330065654957,47.6248801857721,13717,667142,,DIAMOND PARKING  A399,JONATHAN DIAMOND,2062843100           ,"617 EASTLAKE AVE E, SEATTLE, WA 98109",75,DIAMOND PARKING  A399,,,,,,,,,,,,,,,N,,,
-122.331572840706,47.6243988957333,13718,656671,,AMAZON 1260 MERCER LOT 82074,BILL BEATTIE,2063818552           ,"1260 MERCER ST, SEATTLE, WA 98109-5577",173,AMAZON 1260 MERCER LOT 82074,,,,,,,,,,,,,,,N,,,
-122.329595079077,47.6233339992815,13719,670831,,ACE PARKING  3260,KEITH JONES,6192336624           ,"501 EASTLAKE AVE E, SEATTLE, WA 98109",173,ACE PARKING  3260,,,,,,,,,,,,,,,N,,,
-122.330283876989,47.6232301319165,13720,670828,,ACE PARKING  3261,KEITH JONES,6192336624           ,"500 YALE AVE N, SEATTLE, WA 98109",131,ACE PARKING  3261,,,,,,,,,,,,,,,N,,,
-122.333902025006,47.6225105599075,13721,704190,,IMPARK  122,EDWARD DANYLUK,2063811789           ,"400 FAIRVIEW AVE N, SEATTLE, WA 98109",418,IMPARK  122,,,,,,,,,,,,,,,N,,,
-122.329407427085,47.6227832717304,13722,738917,,DIAMOND PARKING SERVICES A694,JONATHAN DIAMOND,2062843100           ,"425 EASTLAKE AVE E, SEATTLE, WA 98109",19,DIAMOND PARKING SERVICES A694,,,,,,,,,,,,,,,N,,,
-122.330183834894,47.6226291929633,13723,717276,,REPUBLIC PARKING  121,GARY BECK,2067834144           ,"422 YALE AVE N, SEATTLE, WA 98109-5449",0,REPUBLIC PARKING  121,,,,,,,,,,,,,,,N,,,
-122.330273770175,47.6199958470089,13724,584403,,REI GARAGE,BILL BEATTIE,2066247040           ,"222 YALE AVE N, SEATTLE, WA 98109-5429",365,REI GARAGE,,,,,,,,,,,,,,,N,,,
-122.382815066015,47.6310004417375,13725,625644,,REPUBLIC PARKING 84 PIER 91,GARY BECK,2067834144           ,"2001 W GARFIELD ST, SEATTLE, WA 98119",1100,REPUBLIC PARKING 84 PIER 91,,,,,,,,,,,,,,,N,,,
-122.304102808075,47.6175787528619,13726,720118,,DIAMOND PARKING  A655,JONATHAN DIAMOND,2062843100           ,"1717 22ND AVE, SEATTLE, WA 98122",25,DIAMOND PARKING  A655,,,,,,,,,,,,,,,N,,,
-122.304101814722,47.6175794936213,13727,737201,,DIAMOND PARKING A687,JONATHAN DIAMOND,2062843100           ,"1721 22ND AVE, SEATTLE, WA 98122",17,DIAMOND PARKING A687,,,,,,,,,,,,,,,N,,,
-122.330974565772,47.6051760091436,13728,735789,,IPM 69 F5 TOWER,JOAN SUNDBERG,2062540811           ,"801 5TH AVE, SEATTLE, WA 98104",301,IPM 69 F5 TOWER,,,,,,,,,,,,,,,N,,,
-122.330974565772,47.6051760091436,13729,727151,,F5 TOWER,KEVIN DANIELS,2064895578           ,"801 5TH AVE, SEATTLE, WA 98104",217,F5 TOWER,,,,,,,,,,,,,,,N,,,
-122.318919892574,47.6745585340766,13730,725088,,DIAMOND PARKING WX22,JONATHAN DIAMOND,2062843100           ,"6309 9TH AVE NE, SEATTLE, WA 98115",55,DIAMOND PARKING WX22,,,,,,,,,,,,,,,N,,,
-122.340635968302,47.6255157887708,13731,582531,,DIAMOND PARKING  A478,JONATHAN DIAMOND,2062846303           ,"802 ROY ST, SEATTLE, WA 98109",165,DIAMOND PARKING  A478,,,,,,,,,,,,,,,N,,,
-122.316009130495,47.5933971052754,13732,76138,,REPUBLIC PARKING 30 211 PACIFICTOWER NORTH,GARY BECK,2067834144           ,"1131 14TH AVE S, SEATTLE, WA 98144",211,REPUBLIC PARKING 30 211 PACIFICTOWER NORTH,,,,,,,,,,,,,,,N,,,
-122.332911319123,47.6155792204483,13733,731252,,ACE PARKING MANAGEMENT INC,KEITH JONES,6192236624           ,"1815 TERRY AVE, SEATTLE, WA 98101",110,ACE PARKING MANAGEMENT INC,,,,,,,,,,,,,,,N,,,
-122.329165249746,47.6083523221102,13734,645764,,DIAMOND PARKING  A911,JONATHAN DIAMOND,2062846303           ,"1013 8TH AVE, SEATTLE, WA 98104",10,DIAMOND PARKING  A911,,,,,,,,,,,,,,,N,,,
-122.351786685578,47.625284505681,13735,720870,,DIAMOND PARKING  A658,JONATHAN DIAMOND,2062843100           ,"225 ROY ST, SEATTLE, WA 98109",58,DIAMOND PARKING  A658,,,,,,,,,,,,,,,N,,,
-122.338551828464,47.6050429089777,13736,76118,,REPUBLIC PARKING 62 WATERFRONT PLACE 2,GARY BECK,2067834144           ,"1101 WESTERN AVE, SEATTLE, WA 98101",132,REPUBLIC PARKING 62 WATERFRONT PLACE 2,,,,,,,,,,,,,,,N,,,
-122.330278934062,47.60572940912,13737,684560,ABM ONSITE SERVICES WEST INC,ABM PARKING #6141,YONAS AHMED,2062670446           ,"800 5TH AVE, SEATTLE, WA 98104",496,,,,,,,,,,,,,,,,N,800 5th Ave GARAGE,26,G23
-122.335194456694,47.6028956586954,13738,692447,SP PLUS CORPORATION,US BANK GARAGE,BILL BEATTIE,2063818552           ,"721 1ST AVE, SEATTLE, WA 98104",503,,6:00am - 9:00pm,10:00am - 2:30am,10:00am - 10:00pm,GARAGE,3,6,9,,7,Central,(206) 624-1755,,http://seattleparking.spplus.com/Seattle-721-1st-Avenue-Parking.html,,N,1ST & COLUMBIA GARAGE,15,G16
-122.335884616775,47.6086916115162,13739,660161,REPUBLIC PARKING N W INC,REPUBLIC PARKING #30-103 - PUGET SOUND PLAZA/COBB,GARY BECK,2067834144           ,"1325 4TH AVE, SEATTLE, WA 98101",591,30-103 PS Plaza/Cobb Building,,,,GARAGE,10,13,17,35,,Republic Parking Northwest,,,http://www.rpnw.com/lot/seattle/30-103,,N,PSP/COBB GARAGE,8,G7
-122.338031218376,47.6044871359422,13740,655407,IMPERIAL PARKING US INC,IMPARK #            - WATERFRONT PLACE GARAGE,EDWARD DANYLUK,2063811789           ,"1109 WESTERN AV, SEATTLE, WA 98101",194,Waterfront Place - Lot 103,,,,GARAGE,6,,,,,IMPARK,,,"https://lots.impark.com/imp?_ga=1.48952358.1277140387.1429651959#details=25,103",,N,WATERFRONT PLACE GARAGE,22,G19
-122.341397239132,47.6079132663116,13741,76120,REPUBLIC PARKING N W INC,REPUBLIC PARKING #54,GARY BECK,2067834144           ,"1422 ALASKAN WY, SEATTLE, WA   98101",147,Hillclimb Garage,10:00am - 6:00pm,9:00am - 8:00pm,9:00am - 6:00pm,GARAGE,3,6,9,18,2,Republic Parking Northwest,,,http://www.rpnw.com/lot/seattle/30-064,,N,HILLCLIMB GARAGE,21,G14
-122.338788719875,47.6096731386639,13742,603198,REPUBLIC PARKING N W INC,REPUBLIC PARKING #533,GARY BECK,2067834144           ,"1500 2ND AVE, SEATTLE, WA   98101",322,West Edge,6am - 11pm,8am - 2am,8am - 7pm,GARAGE,7,12,13,23,,,,,http://www.rpnw.com/lot/seattle/30-533,,N,REPUBLIC,24,G22
-122.334040868508,47.6102248638718,13743,544,WASHINGTON ATHLETIC CLUB,WAC PARKING,G BRIGGS,2064643059           ,"1409 6TH AV, SEATTLE, WA   98101",170,WAC Garage,24 hours,24 hours,24 hours,GARAGE,9,12,15,35,5,WAC,(206) 622-7900,,https://www.wac.net/about-the-wac/parking/,,N,WAC PARKING,9,G11
-122.339466042944,47.6110069348842,13744,587227,REPUBLIC PARKING N W INC,REPUBLIC PARKING #526,GARY BECK,2067834144           ,"1619 3RD AVE, SEATTLE, WA 98101",754,3rd and Stewart Garage,5:30am - 12:00am,7:00am - 12:00am,9:00am - 8:00pm,GARAGE,8,14,18,36,14,Republic Parking Northwest,(206) 783-4144,,http://www.rpnw.com/lot/seattle/30-071,,N,3RD & STEWART,6,G3
-122.348965255378,47.6123365899572,13745,76135,REPUBLIC PARKING N W INC,REPUBLIC PARKING #28,GARY BECK,2067834144           ,"9 Wall Street, SEATTLE, WA   98121",1511,30-028 Bell Street Pier Garage,6:00am - 12:00am,6:00am - 1:00am,6:00am - 12:00am,GARAGE,5,8,12,22,14,Republic Parking Northwest,(206) 443-1793,,http://www.rpnw.com/lot/seattle/30-028,,N,BELL ST PIER,18,G13
-122.338061975798,47.6054703088394,13746,76119,REPUBLIC PARKING N W INC,REPUBLIC PARKING #53,GARY BECK,2067834144           ,"1108 WESTERN AV, SEATTLE, WA   98101",121,,6:30am - 8:00pm,10:00am - 8:00pm,11:00am - 6:00pm,GARAGE,3,6,9,30,,,,,http://www.rpnw.com/lot/seattle/30-063,,N,WATERMARK TOWER GARAGE,20,G18
-122.33167148145,47.6119476600079,13747,656903,WASHINGTON STATE CONVENTION CENTER - PFD,WASHINGTON STATE CONVENTION CENTER - PFD,JEFF BLOSSER,2066945025           ,"800 CONVENTION PL, SEATTLE, WA 98101-2350",805,Convention Center,5:30am - 12:00am,5:30am - 12:00am,5:30am - 12:00am,GARAGE,5,8,10,29,,,(206) 694-5000,,http://www.wscc.com/parking-directions,,N,CONVENTION CENTER GARAGE,27,G9
-122.342130590681,47.6089786608897,13748,16048,PIKE PLACE MARKET PDA,MARKET PARKING #5,,2066254764           ,"1531 WESTERN AV, SEATTLE, WA   98101",540,Public Market Garage,5:00am - 2:00am,5:00am - 2:00am,5:00am - 2:00am,GARAGE,3,6,9,40,6,PIKE PLACE MARKET,(206) 774-5237,,http://www.pikeplacemarket.org/public-market-garage,,N,PUBLIC MARKET GARAGE,7,G2
-122.325920741405,47.6144921543945,13749,681526,,REPUBLIC PARKING 30 006 SUMMIT GARAGE,GARY BECK,2067834144           ,"420 E PIKE ST, SEATTLE, WA 98122",113,REPUBLIC PARKING 30 006 SUMMIT GARAGE,,,,,,,,,,,,,,,N,,,
-122.328573038681,47.6132937155273,13750,635163,,DIAMOND PARKING  A113,JONATHAN DIAMOND,2062846303           ,"1101 PIKE ST, SEATTLE, WA 98101",18,DIAMOND PARKING  A113,,,,,,,,,,,,,,,N,,,
-122.324538568386,47.6113605840645,13751,726755,,ABM PARKING 6177 VMMC TATE MASON LOT,,2062670446           ,"1215 SENECA ST, SEATTLE, WA 98101",27,ABM PARKING 6177 VMMC TATE MASON LOT,,,,,,,,,,,,,,,N,,,
-122.324538568386,47.6113605840645,13752,730225,,DIAMOND PARKING SERVICES A673,JONATHAN DIAMOND,2062843100           ,"1111 SUMMIT AVE, SEATTLE, WA 98101",26,DIAMOND PARKING SERVICES A673,,,,,,,,,,,,,,,N,,,
-122.323487623082,47.6111853726937,13753,635170,,DIAMOND PARKING  A286,JONATHAN DIAMOND,2062846303           ,"1300 SPRING ST, SEATTLE, WA 98104",16,DIAMOND PARKING  A286,,,,,,,,,,,,,,,N,,,
-122.332282067886,47.6175593012565,13754,690379,,DIAMOND PARKING  A477,JONATHAN DIAMOND,2062843100           ,"1901 MINOR AVE, SEATTLE, WA 98101",72,DIAMOND PARKING  A477,,,,,,,,,,,,,,,N,,,
-122.323762752193,47.616922760223,13755,593945,,DIAMOND   A170,JONATHAN DIAMOND,2062843100           ,"1717 BOYLSTON AVE, SEATTLE, WA 98122",28,DIAMOND   A170,,,,,,,,,,,,,,,N,,,
-122.327570359578,47.6156669868848,13756,683675,,DIAMOND PARKING  A836,JONATHAN DIAMOND,2062843100           ,"1610 MELROSE AVE, SEATTLE, WA 98122",20,DIAMOND PARKING  A836,,,,,,,,,,,,,,,N,,,
-122.33939565265,47.622636835814,13757,561452,,SP PLUS 82515,BILL BEATTIE,2066247040           ,"400 9TH AVE N, SEATTLE, WA 98109-4708",427,SP PLUS 82515,,,,,,,,,,,,,,,N,,,
-122.36655689268,47.6247366942402,13758,662392,,DIAMOND PARKING  A390,JONATHAN DIAMOND,2062843100           ,"601 ELLIOTT AVE W, SEATTLE, WA 98119",150,DIAMOND PARKING  A390,,,,,,,,,,,,,,,N,,,
-122.381912043678,47.6670139103944,13759,701366,,BALLARD PARKING,JAMES RIGGLE,2067895010           ,"5208 20TH AVE NW, SEATTLE, WA 98107",45,BALLARD PARKING,,,,,,,,,,,,,,,N,,,
-122.356302801608,47.6231046516548,13760,625135,,DIAMOND PARKING  A824,JONATHAN DIAMOND,2062843100           ,"434 QUEEN ANNE AVE N, SEATTLE, WA 98109",12,DIAMOND PARKING  A824,,,,,,,,,,,,,,,N,,,
-122.347417376249,47.6191956465194,13761,513327,,KEY PARK NORTHWEST  107,GERALD FISH,2064438400           ,"120 5TH AVE N, SEATTLE, WA 98109",10,KEY PARK NORTHWEST  107,,,,,,,,,,,,,,,N,,,
-122.338457504778,47.6170653863796,13762,635159,,DIAMOND PARKING  A072,JONATHAN DIAMOND,2062846303           ,"2115 WESTLAKE AVE, SEATTLE, WA 98121",21,DIAMOND PARKING  A072,,,,,,,,,,,,,,,N,,,
-122.378463897367,47.6378118432538,13763,641081,,SEATTLE CRUISEPARK,PATRICK HORENSTEIN,2068615120           ,"1601 W ARMORY WAY, SEATTLE, WA 98119-2729",0,SEATTLE CRUISEPARK,,,,,,,,,,,,,,,N,,,
-122.328533563237,47.615290603399,13764,594282,,KEY PARK NORTHWEST  43,GERALD FISH,2064438400           ,"1208 PINE ST, SEATTLE, WA 98101",49,KEY PARK NORTHWEST  43,,,,,,,,,,,,,,,N,,,
-122.324792000816,47.6148021719803,13765,717277,,REPUBLIC PARKING  126,GARY BECK,2067834144           ,"1521 BELMONT AVE E, SEATTLE, WA 98112",15,REPUBLIC PARKING  126,,,,,,,,,,,,,,,N,,,
-122.33302453045,47.6134291649485,13766,625375,,IMPARK  73,EDWARD DANYLUK,2063811789           ,"802 PINE, SEATTLE, WA 98101",87,IMPARK  73,,,,,,,,,,,,,,,N,,,
-122.329288699917,47.6130118756279,13767,735848,,ACE PARKING  HOMEWOOD SUITES,KEITH JONES,6192336624           ,"1011 PIKE ST, SEATTLE, WA 98101",70,ACE PARKING  HOMEWOOD SUITES,,,,,,,,,,,,,,,N,,,
-122.333297910486,47.6127535307306,13768,596077,,7TH AND PIKE HOTEL GARAGE 81117,BILL BEATTIE,2063818552           ,"721 PINE ST, SEATTLE, WA 98101-1815",820,7TH AND PIKE HOTEL GARAGE 81117,,,,,,,,,,,,,,,N,,,
-122.333297910486,47.6127535307306,13769,729931,,81720 GRAND HYATT SEATTLE,BILL BEATTIE,2063818552           ,"721 PINE ST, SEATTLE, WA 98101",50,81720 GRAND HYATT SEATTLE,,,,,,,,,,,,,,,N,,,
-122.330275083586,47.6109586217963,13770,656904,,WASHINGTON STATE CONVENTION CENTER PFD,JEFF BLOSSER,2066945025           ,"1300 HUBBELL PL, SEATTLE, WA 98101-2791",630,WASHINGTON STATE CONVENTION CENTER PFD,,,,,,,,,,,,,,,N,,,
-122.322773629693,47.6172473715471,13771,718217,,DIAMOND PARKING 653,JONATHAN DIAMOND,2062843100           ,"1727 HARVARD AVE, SEATTLE, WA 98122",13,DIAMOND PARKING 653,,,,,,,,,,,,,,,N,,,
-122.320434286332,47.6145698740004,13772,645737,,DIAMOND PARKING  A316,JONATHAN DIAMOND,2062846303           ,"1518 BROADWAY, SEATTLE, WA 98122",4,DIAMOND PARKING  A316,,,,,,,,,,,,,,,N,,,
-122.319295283632,47.6142122464739,13773,627197,,IPM  22,JOAN SUNDBERG,2062540811           ,"1010 E PIKE ST, SEATTLE, WA 98122",26,IPM  22,,,,,,,,,,,,,,,N,,,
-122.315278207079,47.6143070302296,13774,685245,,DIAMOND PARKING  A464,JONATHAN DIAMOND,2062843100           ,"1300 E PIKE ST, SEATTLE, WA 98122",11,DIAMOND PARKING  A464,,,,,,,,,,,,,,,N,,,
-122.32270881185,47.6138461350776,13775,727485,,DIAMOND PARKING SERVICES A668,JONATHAN DIAMOND,2062843100           ,"715 E PIKE ST, SEATTLE, WA 98122",36,DIAMOND PARKING SERVICES A668,,,,,,,,,,,,,,,N,,,
-122.321216695935,47.6131807130334,13776,625374,,IMPARK  72,EDWARD DANYLUK,2063811789           ,"1401 BROADWAY, SEATTLE, WA 98122",277,IMPARK  72,,,,,,,,,,,,,,,N,,,
-122.315276733975,47.6137463572762,13777,695093,,BOA E MADISON ST,ALAN LAZOWSKI,8605227641           ,"1300 E MADISON ST, SEATTLE, WA 98122-4059",34,BOA E MADISON ST,,,,,,,,,,,,,,,N,,,
-122.320443290693,47.6130915682172,13778,593935,,DIAMOND   A052,JONATHAN DIAMOND,2062843100           ,"1406 BROADWAY, SEATTLE, WA 98122",30,DIAMOND   A052,,,,,,,,,,,,,,,N,,,
-122.319750595599,47.6128162071868,13779,717117,,DIAMOND PARKING  A651,JONATHAN DIAMOND,2062843100           ,"953 E UNION ST, SEATTLE, WA 98122",10,DIAMOND PARKING  A651,,,,,,,,,,,,,,,N,,,
-122.320273564717,47.6119919041806,13780,605514,,DIAMOND PARKING  A903,JONATHAN DIAMOND,2062843100           ,"1120 BROADWAY, SEATTLE, WA 98102",140,DIAMOND PARKING  A903,,,,,,,,,,,,,,,N,,,
-122.320273564717,47.6119919041806,13781,593916,,DIAMOND  PARKING  A904,JONATHAN DIAMOND,2062843100           ,"1120 BROADWAY, SEATTLE, WA 98102",212,DIAMOND  PARKING  A904,,,,,,,,,,,,,,,N,,,
-122.321654531259,47.6109910647449,13782,594271,,KEY PARK NORTHWEST 57,GERALD FISH,2064438400           ,"1010 BOYLSTON AVE, SEATTLE, WA 98104",22,KEY PARK NORTHWEST 57,,,,,,,,,,,,,,,N,,,
-122.31644451099,47.6105536468549,13783,595329,,DIAMOND PARKING  A959,JONATHAN DIAMOND,2062843100           ,"900 12TH AVE, SEATTLE, WA 98122",30,DIAMOND PARKING  A959,,,,,,,,,,,,,,,N,,,
-122.32037199619,47.6149114858475,13784,674971,,DIAMOND PARKING  A441,JONATHAN DIAMOND,2062843100           ,"1526 BROADWAY, SEATTLE, WA 98112",11,DIAMOND PARKING  A441,,,,,,,,,,,,,,,N,,,
-122.322485525337,47.6134372110902,13785,4513,,U PARK 8,KEN JR PHILLIPS,2062849797           ,"1413 HARVARD AVE, SEATTLE, WA 98122",72,U PARK 8,,,,,,,,,,,,,,,N,,,
-122.322485525337,47.6134372110902,13786,593936,,DIAMOND  A054,JONATHAN DIAMOND,2062843100           ,"1421 HARVARD AVE, SEATTLE, WA 98122",19,DIAMOND  A054,,,,,,,,,,,,,,,N,,,
-122.32262134051,47.6121653470448,13787,4595,,U PARK 91,KEN JR PHILLIPS,2066245353           ,"1140 BOYLSTON AVE, SEATTLE, WA 98122",26,U PARK 91,,,,,,,,,,,,,,,N,,,
-122.307960566071,47.6168720588975,13788,717781,,DIAMOND PARKING  A652,JONATHAN DIAMOND,2062843100           ,"1818 E MADISON ST, SEATTLE, WA 98122",11,DIAMOND PARKING  A652,,,,,,,,,,,,,,,N,,,
-122.307056253369,47.6164464394449,13789,576755,,DIAMOND PARKING  A350,JONATHAN DIAMOND,2062846303           ,"1634 19TH AVE, SEATTLE, WA 98122",35,DIAMOND PARKING  A350,,,,,,,,,,,,,,,N,,,
-122.33466470681,47.6105449770988,13790,730364,,LAZ PARKING US BANK CENTER,ALAN LAZOWSKI,8605227641           ,"1420 5TH AVE, SEATTLE, WA 98101-4087",972,LAZ PARKING US BANK CENTER,,,,,,,,,,,,,,,N,,,
-122.338785497878,47.6102973076255,13791,520699,,HEDREEN LLC,CYPRESS PARTNERS LTD,2066248909           ,"217 PINE ST # 200, SEATTLE, WA 98101",0,HEDREEN LLC,,,,,,,,,,,,,,,N,,,
-122.337453290315,47.6102213836148,13792,603197,,REPUBLIC PARKING  534,GARY BECK,2067834144           ,"1501 4TH AVE AV, SEATTLE, WA 98101",264,REPUBLIC PARKING  534,,,,,,,,,,,,,,,N,,,
-122.338840758482,47.6087020230833,13793,733680,,UNITED PARKING INC 4427,JONATHAN DIAMOND,2062843100           ,"1401 2ND AVE, SEATTLE, WA 98101",184,UNITED PARKING INC 4427,,,,,,,,,,,,,,,N,,,
-122.337768191315,47.6074014426092,13794,613240,,REPUBLIC PARKING 529 WAMU CENTER,GARY BECK,2067834144           ,"1301 2ND AVE, SEATTLE, WA 98101",698,REPUBLIC PARKING 529 WAMU CENTER,,,,,,,,,,,,,,,N,,,
-122.336106735509,47.6072319073209,13795,1807,,STATION 244,BOB TURLEY,2062843100           ,"1201 3RD AVE, SEATTLE, WA 98101",808,STATION 244,,,,,,,,,,,,,,,N,,,
-122.340376320651,47.6070340900957,13796,683126,,DIAMOND PARKING  A451,JONATHAN DIAMOND,2062843100           ,"1334 ALASKAN WAY, SEATTLE, WA 98101",8,DIAMOND PARKING  A451,,,,,,,,,,,,,,,N,,,
-122.335807116375,47.6064171198115,13797,692709,,ACE PARKING LOT 3274 2ND & SPRING GARAGE,KEITH JONES,6192336624           ,"1100 2ND AVE, SEATTLE, WA 98101",69,ACE PARKING LOT 3274 2ND & SPRING GARAGE,,,,,,,,,,,,,,,N,,,
-122.333879387102,47.6061472204962,13798,726757,,ABM PARKING 7018,,2062670446           ,"1001 4TH AVE, SEATTLE, WA 98104",590,ABM PARKING 7018,,,,,,,,,,,,,,,N,,,
-122.334467445302,47.6036964228949,13799,646200,,IPM  39 NORTON BUILDING,JOAN SUNDBERG,2062540811           ,"800 1ST AVE, SEATTLE, WA 98104",289,IPM  39 NORTON BUILDING,,,,,,,,,,,,,,,N,,,
-122.339192241601,47.6101386197772,13800,671823,,DIAMOND PARKING  A431,JONATHAN DIAMOND,2062843100           ,"1526 2ND AVE, SEATTLE, WA 98101",25,DIAMOND PARKING  A431,,,,,,,,,,,,,,,N,,,
-122.339431915131,47.6086693519349,13801,4194,,METRO PARKING INC,DEBRA MUSCATEL,4258682143           ,"1430 1ST AVE, SEATTLE, WA 98101-2004",44,METRO PARKING INC,,,,,,,,,,,,,,,N,,,
-122.339431915131,47.6086693519349,13802,4194,,METRO PARKING INC,DEBRA MUSCATEL,2066229180           ,"1430 1ST AVE, SEATTLE, WA 98101-2004",44,METRO PARKING INC,,,,,,,,,,,,,,,N,,,
-122.337171259095,47.6079398471436,13803,723319,,IMPARK  146   BENAROYA HALL,EDWARD DANYLUK,2063811789           ,"200 UNIVERSITY ST, SEATTLE, WA 98101",430,IMPARK  146   BENAROYA HALL,,,,,,,,,,,,,,,N,,,
-122.335819651758,47.6155472550747,13804,743665,,AMB INDUSTRY GROUP LLC,,2062670446           ,"1918 8TH AVE, SEATTLE, WA 98101",405,AMB INDUSTRY GROUP LLC,,,,,,,,,,,,,,,N,,,
-122.344585637742,47.6152710634503,13805,519369,,REPUBLIC PARKING  155,GARY BECK,2067834144           ,"314 BELL ST, SEATTLE, WA 98121",21,REPUBLIC PARKING  155,,,,,,,,,,,,,,,N,,,
-122.338349417868,47.6152312928076,13806,561451,,DOPPLER 82568,BILL BEATTIE,2066247040           ,"2021 7TH AVE, SEATTLE, WA 98121-2601",1067,DOPPLER 82568,,,,,,,,,,,,,,,N,,,
-122.337481288352,47.6148702739773,13807,582530,,IPM METROPOLITAN TOWER,JOAN SUNDBERG,2062540811           ,"1942 WESTLAKE AVE, SEATTLE, WA 98101",373,IPM METROPOLITAN TOWER,,,,,,,,,,,,,,,N,,,
-122.333993242536,47.614564376593,13808,743777,,ACE MANAGEMENT HYATT REGENCY SEATTLE,KEITH JONES,6192336624           ,"808 HOWELL ST, SEATTLE, WA 98101",498,ACE MANAGEMENT HYATT REGENCY SEATTLE,,,,,,,,,,,,,,,N,,,
-122.339556996543,47.614487105487,13809,663740,,IMPARK 112,EDWARD DANYLUK,2063811789           ,"2020 5TH AVE, SEATTLE, WA 98121",74,IMPARK 112,,,,,,,,,,,,,,,N,,,
-122.339556996543,47.614487105487,13810,663740,,IMPARK 112,EDWARD DANYLUK,2063811789           ,"2020 5TH AVE, SEATTLE, WA 98121",74,IMPARK 112,,,,,,,,,,,,,,,N,,,
-122.334853053214,47.61417895605,13811,735385,,DIAMOND PARKING 0668,BOB TURLEY,2064367204           ,"720 OLIVE WAY, SEATTLE, WA 98121",212,DIAMOND PARKING 0668,,,,,,,,,,,,,,,N,,,
-122.339131786534,47.6140900763223,13812,530470,,IMPARK  3,EDWARD DANYLUK,2063811789           ,"2010 5TH AVE, SEATTLE, WA 98121",388,IMPARK  3,,,,,,,,,,,,,,,N,,,
